[{"name":"Agapé","city":"Paris 17","zipcode":"75017"},{"name":"Le Jardin des Remparts","city":"Beaune","zipcode":"21200"},{"name":"Frédéric Doucet","city":"Charolles","zipcode":"71120"},{"name":"Le Pré Catelan","city":"Paris","zipcode":"75016"},{"name":"Aigue Marine","city":"Tréguier","zipcode":"22220"},{"name":"Le 39V","city":"Paris 08","zipcode":"75008"},{"name":"Le Saint-Estève","city":"Le Tholonet","zipcode":"13100"},{"name":"JY'S","city":"Colmar","zipcode":"68000"},{"name":"Restaurant du Palais Royal","city":"Paris 01","zipcode":"75001"},{"name":"Auberge de l'Île Barbe","city":"Lyon 09","zipcode":"69009"},{"name":"Les Pêcheurs","city":"Antibes","zipcode":"06600"},{"name":"La Table de Franck Putelat","city":"Carcassonne","zipcode":"11000"},{"name":"Le Restaurant","city":"Paris 06","zipcode":"75006"},{"name":"Christophe Bacquié","city":"Le Castellet","zipcode":"83330"},{"name":"L'Orangerie du Château","city":"Blois","zipcode":"41000"},{"name":"Paul Bocuse","city":"Collonges-au-Mont-d'Or","zipcode":"69660"},{"name":"Les Tablettes de Jean-Louis Nomicos","city":"Paris 16","zipcode":"75116"},{"name":"Fanny Rey & Jonathan Wahid","city":"SAINT REMY DE PROVENCE","zipcode":"13210"},{"name":"La Liégeoise","city":"Wimereux","zipcode":"62930"},{"name":"Numéro 3","city":"Le Tremblay-sur-Mauldre","zipcode":"78490"},{"name":"Paloma","city":"Mougins","zipcode":"06250"},{"name":"La Tour des Vents","city":"Monbazillac","zipcode":"24240"},{"name":"Patrick Jeffroy","city":"Carantec","zipcode":"29660"},{"name":"Mère Brazier","city":"LYON","zipcode":"69001"},{"name":"Le Moulin du Roc","city":"Champagnac-de-Belair","zipcode":"24530"},{"name":"William Frachot","city":"DIJON","zipcode":"21000"},{"name":"L'Almandin","city":"Saint-Cyprien","zipcode":"66750"},{"name":"Mathieu Pacaud - Histoires","city":"Paris","zipcode":"75016"},{"name":"Auberge du Bon Laboureur","city":"Chenonceaux","zipcode":"37150"},{"name":"Le Cloître","city":"Mane","zipcode":"04300"},{"name":"Sur Mesure par Thierry Marx","city":"Paris 01","zipcode":"75001"},{"name":"Le Relais Bernard Loiseau","city":"Saulieu","zipcode":"21210"},{"name":"Le Quinzième - Cyril Lignac","city":"Paris","zipcode":"75015"},{"name":"1217","city":"Bagnols","zipcode":"69620"},{"name":"Assiette Champenoise","city":"Tinqueux","zipcode":"51430"},{"name":"Château de Pray","city":"Amboise","zipcode":"37400"},{"name":"Château de Pray","city":"Amboise","zipcode":"37400"},{"name":"Hostellerie Bérard","city":"LA-CADIERE-D'AZUR","zipcode":"83740"},{"name":"Le Chiberta","city":"Paris 08","zipcode":"75008"},{"name":"Domaine d'Auriac","city":"Carcassonne","zipcode":"11000"},{"name":"Têtedoie","city":"Lyon 05","zipcode":"69005"},{"name":"La Barbacane","city":"Carcassonne","zipcode":"11000"},{"name":"Le Fanal","city":"Banyuls-sur-Mer","zipcode":"66650"},{"name":"Carré des Feuillants","city":"Paris 01","zipcode":"75001"},{"name":"Le Taillevent","city":"Paris","zipcode":"75008"},{"name":"Le Hittau","city":"SAINT-VINCENT-DE-TYROSSE","zipcode":"40230"},{"name":"Dominique Bouchet","city":"Paris","zipcode":"75008"},{"name":"Mirazur","city":"Menton","zipcode":"06500"},{"name":"Le Violon d'Ingres","city":"Paris","zipcode":"75007"},{"name":"G.a. au Manoir de Rétival","city":"Caudebec-en-Caux","zipcode":"76490"},{"name":"Gill","city":"Rouen","zipcode":"76000"},{"name":"Le Magasin aux Vivres","city":"Metz","zipcode":"57000"},{"name":"La Rotonde","city":"LA-TOUR-DE-SALVAGNY","zipcode":"69890"},{"name":"Relais de la Poste","city":"Magescq","zipcode":"40140"},{"name":"Aux Pesked","city":"Saint-Brieuc","zipcode":"22000"},{"name":"Il Carpaccio","city":"Paris 08","zipcode":"75008"},{"name":"Auberge du Vieux Puits","city":"Fontjoncouse","zipcode":"11360"},{"name":"Domaine d'Auriac","city":"Carcassonne","zipcode":"11000"},{"name":"L'Oustau de Baumanière","city":"Les Baux-de-Provence","zipcode":"13520"},{"name":"Les Fresques","city":"Monestier","zipcode":"24240"},{"name":"Bruno","city":"Lorgues","zipcode":"83510"},{"name":"Le Brittany","city":"Roscoff","zipcode":"29681"},{"name":"La Maison de Bournissac","city":"Les Paluds-des-Noves","zipcode":"13550"},{"name":"Les Bacchanales","city":"VENCE","zipcode":"06140"},{"name":"Le Quincangrogne","city":"Dampmart","zipcode":"77400"},{"name":"J.-M. Pérochon","city":"Brétignolles-sur-Mer","zipcode":"85470"},{"name":"Les Bas-Rupts","city":"Bas-Rupts","zipcode":"88400"},{"name":"Auberge des Templiers","city":"Les Bézards","zipcode":"45290"},{"name":"Stéphane Derbord","city":"Dijon","zipcode":"21000"},{"name":"Relais de la Poste","city":"LA-WANTZENAU","zipcode":"67610"},{"name":"La Coopérative","city":"Bélesta","zipcode":"66720"},{"name":"Ô Flaveurs","city":"Douvaine","zipcode":"74140"},{"name":"La Table de Patrick Raingeard","city":"EZE-BORD-DE-MER","zipcode":"06360"},{"name":"Raphaël Vionnet","city":"Thonon-les-Bains","zipcode":"74200"},{"name":"Le Clarence","city":"Paris 08","zipcode":"75008"},{"name":"Ivan Vautier","city":"Caen","zipcode":"14000"},{"name":"Le Coquillage","city":"Saint-Méloir-des-Ondes","zipcode":"35350"},{"name":"Yoann Conte","city":"Veyrier-du-Lac","zipcode":"74290"},{"name":"L'Atelier d'Edmond","city":"Val-d'Isère","zipcode":"73150"},{"name":"Maison Clovis","city":"Lyon","zipcode":"69006"},{"name":"Hostellerie de l'Abbaye de la Celle","city":"La Celle","zipcode":"83170"},{"name":"Loiseau rive Gauche","city":"Paris 07","zipcode":"75007"},{"name":"La Marelle","city":"Péronnas","zipcode":"01960"},{"name":"L'Essentiel","city":"DEAUVILLE","zipcode":"14800"},{"name":"La Rotonde","city":"LA-TOUR-DE-SALVAGNY","zipcode":"69890"},{"name":"Le Bénaton","city":"BEAUNE","zipcode":"21200"},{"name":"Ithurria","city":"Ainhoa","zipcode":"64250"},{"name":"Relais de la Poste","city":"Magescq","zipcode":"40140"},{"name":"Le Moulin de l'Abbaye","city":"BRANTOME","zipcode":"24310"},{"name":"Chez Michèle","city":"Languimberg","zipcode":"57810"},{"name":"Le Kléber","city":"Crest","zipcode":"26400"},{"name":"Auguste","city":"Paris 07","zipcode":"75007"},{"name":"Dyades au Domaine des Étangs","city":"MASSIGNAC","zipcode":"16310"},{"name":"Le Cerisier","city":"LAVENTIE","zipcode":"62840"},{"name":"L'Auberge Basque","city":"Saint-Pée-sur-Nivelle","zipcode":"64310"},{"name":"La Bonne Étape","city":"Château-Arnoux","zipcode":"04160"},{"name":"Restaurant du Château","city":"Chancelade","zipcode":"24650"},{"name":"Château de Courban","city":"Courban","zipcode":"21520"},{"name":"Le Pergolèse","city":"Paris","zipcode":"75016"},{"name":"Le Pavillon des Boulevards","city":"Bordeaux","zipcode":"33000"},{"name":"Loiseau des Vignes","city":"Beaune","zipcode":"21200"},{"name":"Alain Llorca","city":"La Colle-sur-Loup","zipcode":"06480"},{"name":"En Marge","city":"AUREVILLE","zipcode":"31320"},{"name":"La Chaumière","city":"Dole","zipcode":"39100"},{"name":"Pierre Gagnaire","city":"Paris 08","zipcode":"75008"},{"name":"Le Petit Nice","city":"Marseille 07","zipcode":"13007"},{"name":"Hostellerie du Rosenmeer","city":"ROSHEIM","zipcode":"67560"},{"name":"Initial","city":"Caen","zipcode":"14000"},{"name":"La Licorne Royale","city":"Lyons-la-Forêt","zipcode":"27480"},{"name":"Alléno Paris au Pavillon Ledoyen","city":"Paris","zipcode":"75008"},{"name":"Julien Binz","city":"Ammerschwihr","zipcode":"68770"},{"name":"Pierre Orsi","city":"Lyon 06","zipcode":"69006"},{"name":"L'Auberge de la Pomme","city":"Les Damps","zipcode":"27340"},{"name":"Domaine de Clairefontaine","city":"Chonas-l'Amballan","zipcode":"38121"},{"name":"Faventia","city":"Tourrettes","zipcode":"83440"},{"name":"L'Ekrin by Laurent Azoulay","city":"MERIBEL","zipcode":"73550"},{"name":"Le M","city":"Brest","zipcode":"29200"},{"name":"Anne de Bretagne","city":"La Plaine-sur-Mer","zipcode":"44770"},{"name":"Les Morainières","city":"Jongieux","zipcode":"73170"},{"name":"La Scène","city":"Paris","zipcode":"75008"},{"name":"Le Moulin de la Gorce","city":"La Roche-l'Abeille","zipcode":"87800"},{"name":"Le Prince Noir - Vivien Durand","city":"Lormont","zipcode":"33310"},{"name":"Le Baudelaire","city":"Paris 01","zipcode":"75001"},{"name":"Le Clos des Sens","city":"Annecy","zipcode":"74940"},{"name":"Le Chantecler","city":"NICE","zipcode":"06000"},{"name":"Le Carmin","city":"Beaune","zipcode":"21200"},{"name":"Hostellerie la Montagne","city":"COLOMBEY-LES-DEUX-EGLISES","zipcode":"52330"},{"name":"Entre Vigne et Garrigue","city":"Pujaut","zipcode":"30131"},{"name":"Au Vieux Couvent","city":"Rhinau","zipcode":"67860"},{"name":"Benoit","city":"Paris 04","zipcode":"75004"},{"name":"Le Bouche à Oreille","city":"Boutervilliers","zipcode":"91150"},{"name":"Le Refuge des Gourmets","city":"Machilly","zipcode":"74140"},{"name":"L'O des Vignes","city":"Fuissé","zipcode":"71960"},{"name":"Maximin Hellio","city":"DEAUVILLE","zipcode":"14800"},{"name":"Greuze","city":"Tournus","zipcode":"71700"},{"name":"L'Oasis","city":"La Napoule","zipcode":"06210"},{"name":"JAN","city":"Nice","zipcode":"06000"},{"name":"Hostellerie Les Gorges de Pennafort","city":"Callas","zipcode":"83830"},{"name":"Une Table au Sud","city":"Marseille","zipcode":"13002"},{"name":"Le Corot","city":"VILLE-D'AVRAY","zipcode":"92410"},{"name":"Auberge La Pomme d'Api","city":"Saint-Pol-de-Léon","zipcode":"29250"},{"name":"La Madeleine","city":"Sens","zipcode":"89100"},{"name":"La Bastide de Moustiers\n      La Bastide de Moustiers","city":"Moustiers-Sainte-Marie","zipcode":"04360"},{"name":"Le Relais des Moines","city":"Les Arcs","zipcode":"83460"},{"name":"Cyril Attrazic","city":"Aumont-Aubrac","zipcode":"48130"},{"name":"Pont de l'Ouysse","city":"Lacave","zipcode":"46200"},{"name":"Les Hautes Roches","city":"Rochecorbon","zipcode":"37210"},{"name":"Auberge Tiegezh","city":"GuerGuer","zipcode":"5638056380"},{"name":"Le Grand Cerf","city":"Montchenot","zipcode":"51500"},{"name":"Le Jardin de Benjamin","city":"Lorgues","zipcode":"83510"},{"name":"La Grande Cascade","city":"Paris","zipcode":"75016"},{"name":"Villa Archange","city":"Le Cannet","zipcode":"06110"},{"name":"Le Carrousel","city":"MARINGUES","zipcode":"63350"},{"name":"La Gouesnière","city":"Saint-Méloir-des-Ondes","zipcode":"35350"},{"name":"MaSa","city":"Boulogne-Billancourt","zipcode":"92100"},{"name":"Le Pré du Moulin","city":"Sérignan-du-Comtat","zipcode":"84830"},{"name":"Villa René Lalique","city":"Wingen-sur-Moder","zipcode":"67290"},{"name":"Domaine de Rochevilaine","city":"Billiers","zipcode":"56190"},{"name":"La Villa Madie","city":"Cassis","zipcode":"13260"},{"name":"Château de Sully","city":"Sully","zipcode":"14400"},{"name":"1912","city":"Trouville-sur-Mer","zipcode":"14360"},{"name":"La Grand'Vigne","city":"Martillac","zipcode":"33650"},{"name":"Maison Kieny","city":"Riedisheim","zipcode":"68400"},{"name":"Domaine des Séquoias","city":"Ruy","zipcode":"38300"},{"name":"Auberge de l'Ill","city":"Illhaeusern","zipcode":"68970"},{"name":"L'Auberge des Glazicks","city":"PLOMODIERN","zipcode":"29550"},{"name":"Le Meurice Alain Ducasse","city":"Paris","zipcode":"75001"},{"name":"Helen","city":"Paris","zipcode":"75008"},{"name":"Girardin","city":"Colmar","zipcode":"68000"},{"name":"La Table des Merville","city":"Castanet-Tolosan","zipcode":"31320"},{"name":"L'Ambroisie","city":"Paris","zipcode":"75004"},{"name":"Le Vivarais","city":"VALS-LES-BAINS","zipcode":"07600"},{"name":"Michel Chabran - La Grande Table","city":"Pont-de-l'Isère","zipcode":"26600"},{"name":"L'Odas","city":"Rouen","zipcode":"76000"},{"name":"Pic","city":"Valence","zipcode":"26000"},{"name":"Auberge du Cheval Blanc","city":"Lembach","zipcode":"67510"},{"name":"Jérôme Brochot","city":"Montceau-les-Mines","zipcode":"71300"},{"name":"La Passagère","city":"Juan-les-Pins","zipcode":"06160"},{"name":"Le St-Placide","city":"Saint-Malo","zipcode":"35400"},{"name":"Le Parc Les Crayères","city":"Reims","zipcode":"51100"},{"name":"Radio","city":"Chamalières","zipcode":"63400"},{"name":"Domaine des Hauts de Loire","city":"Onzain","zipcode":"41150"},{"name":"L'Arnsbourg","city":"Baerenthal","zipcode":"57230"},{"name":"Le Gabriel","city":"Paris","zipcode":"75008"},{"name":"Le Georges","city":"CHARTRES","zipcode":"28000"},{"name":"Maison Decoret","city":"Vichy","zipcode":"03200"},{"name":"Le Castellaras","city":"Fayence","zipcode":"83440"},{"name":"Guy Savoy","city":"Paris","zipcode":"75006"},{"name":"Le Roc Alto","city":"SAINT-VERAN","zipcode":"05350"},{"name":"Lucas Carton","city":"Paris 08","zipcode":"75008"},{"name":"L'Arcane","city":"Paris","zipcode":"75018"},{"name":"Le Haut-Allier","city":"Alleyras","zipcode":"43580"},{"name":"Georges Blanc","city":"Vonnas","zipcode":"01540"},{"name":"Auberge de la Tour","city":"MARCOLES","zipcode":"15220"},{"name":"L'Amaryllis","city":"Saint-Rémy","zipcode":"71100"},{"name":"Lasserre","city":"Paris 08","zipcode":"75008"},{"name":"Hostellerie Jérôme","city":"La Turbie","zipcode":"06320"},{"name":"Le Millénaire","city":"Reims","zipcode":"51100"},{"name":"Manoir de la Boulaie","city":"HAUTE-GOULAINE","zipcode":"44115"},{"name":"Shang Palace\n      Shang Palace","city":"Paris 16","zipcode":"75016"},{"name":"Le Sénéchal","city":"Sauveterre-de-Rouergue","zipcode":"12800"},{"name":"Frédéric Simonin","city":"Paris","zipcode":"75017"},{"name":"L'Amphitryon","city":"Lorient","zipcode":"56100"},{"name":"Loiseau des Ducs","city":"Dijon","zipcode":"21000"},{"name":"Flaveur","city":"Nice","zipcode":"06000"},{"name":"Maison Rostang","city":"Paris","zipcode":"75017"},{"name":"Le Domaine du Colombier","city":"Malataverne","zipcode":"26780"},{"name":"Les Terraillers","city":"Biot","zipcode":"06410"},{"name":"Les Rosiers","city":"Biarritz","zipcode":"64200"},{"name":"Jean-Luc Tartarin","city":"Le Havre","zipcode":"76600"},{"name":"Les Explorateurs","city":"VAL THORENS","zipcode":"73440"},{"name":"Le Jasmin","city":"Saint-Sylvestre-sur-Lot","zipcode":"47140"},{"name":"La Table de l'Espadon","city":"Paris","zipcode":"75001"},{"name":"Alexandre","city":"Garons","zipcode":"30128"},{"name":"Chapelle Saint-Martin","city":"Nieul","zipcode":"87510"},{"name":"Origine","city":"Rouen","zipcode":"76000"},{"name":"La Palme d'Or","city":"Cannes","zipcode":"06400"},{"name":"La Scène Thélème","city":"Paris","zipcode":"75017"},{"name":"Régis et Jacques Marcon","city":"SAINT-BONNET-LE-FROID","zipcode":"43290"},{"name":"Le Bois sans Feuilles\n      Le Bois sans Feuilles","city":"Ouches","zipcode":"42155"},{"name":"Auberge de la Diligence","city":"Loiré","zipcode":"49440"},{"name":"Le P'tit Polyte","city":"Les Deux Alpes","zipcode":"38860"},{"name":"Pur' - Jean-François Rouquette","city":"Paris 02","zipcode":"75002"},{"name":"Neige d'Été\n      Neige d'Été","city":"Paris 15","zipcode":"75015"},{"name":"Ô Saveurs","city":"ROUFFIAC-TOLOSAN","zipcode":"31180"},{"name":"La Mare aux Oiseaux","city":"Saint-Joachim","zipcode":"44720"},{"name":"La Table de La Butte","city":"PLOUIDER","zipcode":"29260"},{"name":"Le Candille","city":"Mougins","zipcode":"06250"},{"name":"64° Le Restaurant","city":"Kaysersberg","zipcode":"68240"},{"name":"Hélène Darroze","city":"Paris 06","zipcode":"75006"},{"name":"L'Abeille","city":"Paris 16","zipcode":"75016"},{"name":"L'Atelier de Gaztelur","city":"Arcangues","zipcode":"64200"},{"name":"La Bastide St-Antoine","city":"Grasse","zipcode":"06130"},{"name":"Ed.Em","city":"Chassagne-Montrachet","zipcode":"21190"},{"name":"Antoine","city":"Paris 16","zipcode":"75116"},{"name":"L'Épuisette","city":"Marseille","zipcode":"13007"},{"name":"Flocons de Sel","city":"Megève","zipcode":"74120"},{"name":"Auberge à la Bonne Idée","city":"SAINT-JEAN-AUX-BOIS","zipcode":"60350"},{"name":"Le Carré d'Alethius","city":"Charmes-sur-Rhône","zipcode":"07800"},{"name":"Cobéa","city":"Paris 14","zipcode":"75014"},{"name":"Auberge Frankenbourg","city":"La Vancelle","zipcode":"67730"},{"name":"Alcyone","city":"MARSEILLE","zipcode":"13002"},{"name":"Les Terrasses de Lyon","city":"Lyon 05","zipcode":"69005"},{"name":"La Nouvelle Auberge","city":"Wihr-au-Val","zipcode":"68230"},{"name":"Château d'Adoménil","city":"Lunéville","zipcode":"54300"},{"name":"Hostellerie de Plaisance","city":"Saint-Emilion","zipcode":"33330"},{"name":"Le Strasbourg","city":"Bitche","zipcode":"57230"},{"name":"L'Escarbille","city":"Meudon","zipcode":"92190"},{"name":"Alliance","city":"Paris","zipcode":"75005"},{"name":"Sylvestre","city":"Paris","zipcode":"75007"},{"name":"Hervé Busset","city":"Conques","zipcode":"12320"},{"name":"Le Belrose","city":"Gassin","zipcode":"83580"},{"name":"Les Prés d'Eugénie - Michel Guérard","city":"Eugénie-les-Bains","zipcode":"40320"},{"name":"Épicure","city":"Paris 08","zipcode":"75008"},{"name":"Les Jardins de l'Espadon","city":"Paris","zipcode":"75001"},{"name":"Maison Lameloise","city":"Chagny","zipcode":"71150"},{"name":"La Bergerie","city":"Sarpoil","zipcode":"63490"},{"name":"Le Gindreau","city":"Saint-Médard","zipcode":"46150"},{"name":"Penati al Baretto","city":"Paris 08","zipcode":"75008"},{"name":"Ar Men Du","city":"Névez","zipcode":"29920"},{"name":"Atmosphères","city":"Le Bourget-du-Lac","zipcode":"73370"},{"name":"Le Grand Véfour","city":"Paris","zipcode":"75001"},{"name":"La Galinette","city":"Perpignan","zipcode":"66000"},{"name":"Thierry Drapeau","city":"Saint-Sulpice-le-Verdon","zipcode":"85260"},{"name":"Hexagone","city":"Paris","zipcode":"75016"},{"name":"Auberge de Clochemerle","city":"VAUX-EN-BEAUJOLAIS","zipcode":"69460"},{"name":"L'Amphitryon","city":"Colomiers","zipcode":"31770"},{"name":"Le Jardin des Plumes","city":"Giverny","zipcode":"27620"},{"name":"Assa","city":"Blois","zipcode":"41000"},{"name":"L'Atelier de Jean-Luc Rabanel","city":"Arles","zipcode":"13200"},{"name":"L'Impertinent","city":"Biarritz","zipcode":"64200"},{"name":"Le Figuier de St-Esprit","city":"Antibes","zipcode":"06600"},{"name":"Le Farçon","city":"La Tania","zipcode":"73125"},{"name":"La Maison d'à Côté","city":"Montlivault","zipcode":"41350"},{"name":"Kasbür","city":"Monswiller","zipcode":"67700"},{"name":"Il Cortile","city":"Mulhouse","zipcode":"68100"},{"name":"Le Saison","city":"Saint-Grégoire","zipcode":"35760"},{"name":"1131","city":"La Bussière-sur-Ouche","zipcode":"21360"},{"name":"Le Domaine de la Corniche","city":"Rolleboise","zipcode":"78270"},{"name":"Lamartine","city":"Le Bourget du Lac","zipcode":"73370"},{"name":"Jérôme Nutile - Le Mas de Boudan","city":"Nîmes","zipcode":"30000"},{"name":"Le Petit Hôtel du Grand Large","city":"Portivy","zipcode":"56510"},{"name":"La Promenade","city":"Le Petit-Pressigny","zipcode":"37350"},{"name":"Le Raisin","city":"Pont-de-Vaux","zipcode":"01190"},{"name":"Le Patio","city":"Arcachon","zipcode":"33120"},{"name":"Le Colombier","city":"OffranvilleOffranville","zipcode":"7655076550"},{"name":"Le Manoir du Lys","city":"Bagnoles-de-l'Orne","zipcode":"61140"},{"name":"Auberge au Boeuf","city":"Sessenheim","zipcode":"67770"},{"name":"Château de Mercuès","city":"Mercuès","zipcode":"46090"},{"name":"Le Cap","city":"SAINT-JEAN-CAP-FERRAT","zipcode":"06230"},{"name":"Auberge de la Mine","city":"La Ferrière-aux-Étangs","zipcode":"61450"},{"name":"Xavier Mathieu","city":"Joucas","zipcode":"84220"},{"name":"Aux Anges","city":"Roanne","zipcode":"42300"},{"name":"L'Olivier","city":"Saint-Tropez","zipcode":"83990"},{"name":"Le Pressoir d'Argent - Gordon Ramsay","city":"Bordeaux","zipcode":"33000"},{"name":"Kei","city":"Paris 01","zipcode":"75001"},{"name":"La Fourchette des Ducs","city":"Obernai","zipcode":"67210"},{"name":"La Voile","city":"Ramatuelle","zipcode":"83350"},{"name":"La Grande Maison de Bernard Magrez","city":"Bordeaux","zipcode":"33000"},{"name":"Les Terrasses d'Uriage","city":"Uriage-les-Bains","zipcode":"38410"},{"name":"Alain Ducasse au Plaza Athénée","city":"Paris","zipcode":"75008"},{"name":"Takao Takano","city":"Lyon 06","zipcode":"69006"},{"name":"La Table de la Bergerie","city":"Champ-sur-Layon","zipcode":"49380"},{"name":"Les Fresques","city":"Évian-les-Bains","zipcode":"74500"},{"name":"La Gourmandière - La Table d'Olivier","city":"Vannes","zipcode":"56000"},{"name":"Auberge de l'Abbaye","city":"Ambronay","zipcode":"01500"},{"name":"Les Ducs de Lorraine","city":"Épinal","zipcode":"88000"},{"name":"La Table d'Uzès","city":"Uzès","zipcode":"30700"},{"name":"AM par Alexandre Mazzia","city":"Marseille","zipcode":"13008"},{"name":"Les Cèdres","city":"Granges-les-Beaumont","zipcode":"26600"},{"name":"Les Clefs d'Argent","city":"Mont-de-Marsan","zipcode":"40000"},{"name":"Grand Hôtel du Lion d'Or","city":"Romorantin-Lanthenay","zipcode":"41200"},{"name":"Dominique Bucaille","city":"Manosque","zipcode":"04100"},{"name":"Le Cinq","city":"Paris 08","zipcode":"75008"},{"name":"René et Maxime Meilleur","city":"Saint-Martin-de-Belleville","zipcode":"73440"},{"name":"Auberge St-Laurent","city":"Sierentz","zipcode":"68510"},{"name":"Le Clair de la Plume","city":"Grignan","zipcode":"26230"},{"name":"Les Berceaux","city":"Épernay","zipcode":"51200"},{"name":"Apicius","city":"Clermont-Ferrand","zipcode":"63000"},{"name":"L'Écrin","city":"Paris","zipcode":"75008"},{"name":"Logis de la Cadène","city":"Saint Emilion","zipcode":"33330"},{"name":"Les Voiles d'Or","city":"Dieppe","zipcode":"76200"},{"name":"Jean-Claude Leclerc","city":"Clermont-Ferrand","zipcode":"63000"},{"name":"Les Voiles d'Or","city":"Dieppe","zipcode":"76200"},{"name":"Jean-Claude Leclerc","city":"Clermont-Ferrand","zipcode":"63000"},{"name":"Gordon Ramsay au Trianon","city":"Versailles","zipcode":"78000"},{"name":"SEPT","city":"Toulouse","zipcode":"31000"},{"name":"La Pyramide-Patrick Henriroux","city":"Vienne","zipcode":"38200"},{"name":"Restaurant des Rois","city":"Beaulieu-sur-Mer","zipcode":"06310"},{"name":"L'Archeste","city":"ParisParis","zipcode":"7511675116"},{"name":"1741","city":"Strasbourg","zipcode":"67000"},{"name":"Arpège","city":"Paris","zipcode":"75007"},{"name":"La Grange de Belle-Église","city":"Belle-Église","zipcode":"60540"},{"name":"Le Saint-James","city":"BOULIAC","zipcode":"33270"},{"name":"Les Bories","city":"Gordes","zipcode":"84220"},{"name":"Toya","city":"Faulquemont","zipcode":"57380"},{"name":"Le Kintessence","city":"Courchevel 1850","zipcode":"73120"},{"name":"Le Clocher des Pères","city":"Saint-Martin-sur-la-Chambre","zipcode":"73130"},{"name":"La Renaissance","city":"Argentan","zipcode":"61200"},{"name":"Auberge de la Charme","city":"Prenois","zipcode":"21370"},{"name":"Pierre","city":"Mâcon","zipcode":"71000"},{"name":"Relais Louis XIII","city":"Paris","zipcode":"75006"},{"name":"Rackham","city":"ROSCOFF","zipcode":"29680"},{"name":"La Table Breizh Café","city":"Cancale","zipcode":"35260"},{"name":"La Grignotière","city":"Raismes","zipcode":"59590"},{"name":"Le Musigny","city":"Valenciennes","zipcode":"59300"},{"name":"1920","city":"Megève","zipcode":"74120"},{"name":"Copenhague","city":"PARIS","zipcode":"75008"},{"name":"La Cachette","city":"Valence","zipcode":"26000"},{"name":"La Vague d'Or","city":"Saint-Tropez","zipcode":"83990"},{"name":"Le Bec au Cauchois","city":"Valmont","zipcode":"76540"},{"name":"La Matelote","city":"BOULOGNE-SUR-MER","zipcode":"62200"},{"name":"Alan Geaam","city":"Paris","zipcode":"75016"},{"name":"L'Atelier du Peintre","city":"Colmar","zipcode":"68000"},{"name":"Le France","city":"VILLERS-LE-LAC","zipcode":"25130"},{"name":"Stéphane Tournié - Les Jardins de l'Opéra","city":"ToulouseToulouse","zipcode":"3100031000"},{"name":"La Table","city":"Lille","zipcode":"59000"},{"name":"Meurin","city":"Busnes","zipcode":"62350"},{"name":"Les Loges","city":"Lyon 05","zipcode":"69005"},{"name":"114, Faubourg","city":"Paris 08","zipcode":"75008"},{"name":"La Table de Nans","city":"La Ciotat","zipcode":"13600"},{"name":"Le Lido","city":"Propriano","zipcode":"20110"},{"name":"Auberge du Pont d'Acigné","city":"Noyal-sur-Vilaine","zipcode":"35530"},{"name":"Le Gourmet de Sèze","city":"Lyon","zipcode":"69006"},{"name":"La Table du Gourmet","city":"Riquewihr","zipcode":"68340"},{"name":"Skab","city":"nimes","zipcode":"30000"},{"name":"La Table de l'Alpaga","city":"Megève","zipcode":"74120"},{"name":"Le Saint-Martin","city":"Vence","zipcode":"06140"},{"name":"Au Crocodile","city":"STRASBOURG","zipcode":"67000"},{"name":"Jin","city":"Paris","zipcode":"75001"},{"name":"Le Champ des Lunes","city":"Lauris","zipcode":"84360"},{"name":"L'Orangerie","city":"Paris","zipcode":"75008"},{"name":"La Lorraine","city":"Zoufftgen","zipcode":"57330"},{"name":"La Marine","city":"L'Herbaudière","zipcode":"85330"},{"name":"Le Bistro des Saveurs","city":"Obernai","zipcode":"67210"},{"name":"Château Cordeillan-Bages","city":"Pauillac","zipcode":"33250"},{"name":"La Chèvre d'Or","city":"Èze","zipcode":"06360"},{"name":"La Maison dans le Parc","city":"Nancy","zipcode":"54000"},{"name":"Copenhague","city":"PARIS","zipcode":"75008"},{"name":"Le Vieux Logis","city":"Trémolat","zipcode":"24510"},{"name":"Le 1947","city":"Courchevel 1850","zipcode":"73120"},{"name":"Fontevraud Le Restaurant","city":"FONTEVRAUD-L'ABBAYE","zipcode":"49590"},{"name":"La Table de Manville","city":"Les Baux-de-Provence","zipcode":"13520"},{"name":"La Palmeraie","city":"La Croix-Valmer","zipcode":"83420"},{"name":"Le Grand Bleu","city":"Sarlat-la-Canéda","zipcode":"24200"},{"name":"Le Pré - Xavier Beaudiment","city":"Durtol","zipcode":"63830"},{"name":"Auberge des Saints Pères","city":"Aulnay-sous-Bois","zipcode":"93600"},{"name":"Le Pavé d'Auge","city":"Beuvron-en-AugeBeuvron-en-Auge","zipcode":"1443014430"},{"name":"Auberge du Cellier","city":"Montner","zipcode":"66720"},{"name":"Nakatani","city":"PARISPARIS","zipcode":"7500775007"},{"name":"Louison","city":"Le Puy-Sainte-Réparade","zipcode":"13610"},{"name":"La Réserve Rimbaud","city":"Montpellier","zipcode":"34000"},{"name":"Auberge Grand'Maison","city":"Mûr-de-Bretagne","zipcode":"22530"},{"name":"Elsa","city":"Roquebrune Cap-Martin","zipcode":"06190"},{"name":"Les Trois Soleils de Montal","city":"Saint-Céré","zipcode":"46400"},{"name":"Mavrommatis","city":"Paris 05","zipcode":"75005"},{"name":"Casadelmar","city":"Porto-VecchioPorto-Vecchio","zipcode":"2013720137"},{"name":"Emporio Armani Ristorante","city":"Paris","zipcode":"75006"},{"name":"I Salti","city":"BelgodèreBelgodère","zipcode":"2022620226"},{"name":"La Maison des Bois - Marc Veyrat","city":"ManigodManigod","zipcode":"7423074230"},{"name":"Flaveurs","city":"ValenceValence","zipcode":"2600026000"},{"name":"Stéphane Carbone","city":"CaenCaen","zipcode":"1400014000"},{"name":"Le Beaulieu","city":"Le MansLe Mans","zipcode":"7200072000"},{"name":"L'Esquisse","city":"AnnecyAnnecy","zipcode":"7400074000"},{"name":"L'Axel","city":"Fontainebleau","zipcode":"77300"},{"name":"Aida","city":"Paris 07Paris 07","zipcode":"7500775007"},{"name":"Maison Jeunet","city":"ArboisArbois","zipcode":"3960039600"},{"name":"Auberge La Fenière","city":"Cadenet","zipcode":"84160"},{"name":"Christopher Coutanceau","city":"La Rochelle","zipcode":"17000"},{"name":"Dan B. - La Table de Ventabren","city":"Ventabren","zipcode":"13122"},{"name":"L'Étang du Moulin","city":"Bonnétage","zipcode":"25210"},{"name":"Les Trois Rochers","city":"Sainte-Marine","zipcode":"29120"},{"name":"Une Île","city":"Angers","zipcode":"49000"},{"name":"La Table du Connétable","city":"ChantillyChantilly","zipcode":"6050060500"},{"name":"La Chassagnette","city":"Arles","zipcode":"13200"},{"name":"Qui plume la Lune","city":"Paris 11","zipcode":"75011"},{"name":"Le Passe Temps","city":"Lyon","zipcode":"69006"},{"name":"Likoké","city":"Les Vans","zipcode":"07140"},{"name":"La Table du 11","city":"Versailles","zipcode":"78000"},{"name":"Albert 1er","city":"Chamonix-Mont-Blanc","zipcode":"74400"},{"name":"La Balette","city":"Collioure","zipcode":"66190"},{"name":"Prairial","city":"Lyon","zipcode":"69001"},{"name":"Maison Christian Étienne","city":"Avignon","zipcode":"84000"},{"name":"Le Vivier","city":"L'Isle-sur-la-Sorgue","zipcode":"84800"},{"name":"Auberge de la Brie","city":"Couilly-Pont-aux-DamesCouilly-Pont-aux-Dames","zipcode":"7786077860"},{"name":"Quai des Saveurs","city":"Hagondange","zipcode":"57300"},{"name":"Buerehiesel","city":"Strasbourg","zipcode":"67000"},{"name":"Astrance","city":"Paris","zipcode":"75016"},{"name":"Serge Vieira","city":"Chaudes-AiguesChaudes-Aigues","zipcode":"1511015110"},{"name":"Le 7ème Continent","city":"Rixheim","zipcode":"68170"},{"name":"La Table Saint-Crescent","city":"NarbonneNarbonne","zipcode":"1110011100"},{"name":"Le Chabichou","city":"Courchevel 1850","zipcode":"73120"},{"name":"Les Climats","city":"Paris 07","zipcode":"75007"},{"name":"Passage 53","city":"Paris","zipcode":"75002"},{"name":"Le Kaïku","city":"Saint-Jean-de-Luz","zipcode":"64500"},{"name":"Château de Mirambeau","city":"Mirambeau","zipcode":"17150"},{"name":"Au 14 Février","city":"Saint-Valentin","zipcode":"36100"},{"name":"Table des Frères Ibarboure","city":"BidartBidart","zipcode":"6421064210"},{"name":"Py-r","city":"Toulouse","zipcode":"31000"},{"name":"Les Trois Dômes","city":"Lyon","zipcode":"69002"},{"name":"Guy Lassausaie","city":"ChasselayChasselay","zipcode":"6938069380"},{"name":"Le George","city":"Paris","zipcode":"75008"},{"name":"Restaurant de Lauzun\n      Restaurant de Lauzun","city":"Gignac","zipcode":"34150"},{"name":"Le Puits St-Jacques","city":"PujaudranPujaudran","zipcode":"3260032600"},{"name":"La Table d'Olivier","city":"Brive-la-GaillardeBrive-la-Gaillarde","zipcode":"1910019100"},{"name":"L'Atelier de Joël Robuchon - Étoile","city":"Paris","zipcode":"75008"},{"name":"La Bastide de Capelongue","city":"BonnieuxBonnieux","zipcode":"8448084480"},{"name":"L'Aquarelle","city":"Breuillet","zipcode":"17920"},{"name":"Maison Prévôt","city":"CavaillonCavaillon","zipcode":"8430084300"},{"name":"Avel Vor","city":"Port-Louis","zipcode":"56290"},{"name":"Ze Kitchen Galerie","city":"ParisParis","zipcode":"7500675006"},{"name":"La Tour","city":"Sancerre","zipcode":"18300"},{"name":"Terre-Mer","city":"AurayAuray","zipcode":"5640056400"},{"name":"Les Chênes Verts","city":"Tourtour","zipcode":"83690"},{"name":"La Petite Maison de Cucuron","city":"CucuronCucuron","zipcode":"8416084160"},{"name":"SaQuaNa","city":"HonfleurHonfleur","zipcode":"1460014600"},{"name":"La Promenade","city":"VerfeilVerfeil","zipcode":"3159031590"},{"name":"En Pleine Nature","city":"FonsegrivesFonsegrives","zipcode":"3113031130"},{"name":"Mariottat","city":"AgenAgen","zipcode":"4700047000"},{"name":"Roscanvec","city":"VannesVannes","zipcode":"5600056000"},{"name":"Le Mas du Langoustier","city":"HyèresHyères","zipcode":"8340083400"},{"name":"Umami","city":"StrasbourgStrasbourg","zipcode":"6700067000"},{"name":"L'Atelier de Joël Robuchon - St-Germain","city":"ParisParis","zipcode":"7500775007"},{"name":"Michel Sarran","city":"ToulouseToulouse","zipcode":"3100031000"},{"name":"Hostellerie de Levernois","city":"LevernoisLevernois","zipcode":"2120021200"},{"name":"La Table de Chaintré","city":"ChaintréChaintré","zipcode":"7157071570"},{"name":"Le Puits du Trésor","city":"LastoursLastours","zipcode":"1160011600"},{"name":"Le Bistrot de Lagarde","city":"Lagarde-d'AptLagarde-d'Apt","zipcode":"8440084400"},{"name":"Le Gambetta","city":"Saumur","zipcode":"49400"},{"name":"Michel Trama","city":"PuymirolPuymirol","zipcode":"4727047270"},{"name":"Le Chiquito","city":"Méry-sur-OiseMéry-sur-Oise","zipcode":"9554095540"},{"name":"Au Déjeuner de Sousceyrac","city":"SousceyracSousceyrac","zipcode":"4619046190"},{"name":"Le Cercle","city":"BourgesBourges","zipcode":"1800018000"},{"name":"Pertica","city":"Vendôme","zipcode":"41100"},{"name":"Cayola","city":"Talmont-Saint-HilaireTalmont-Saint-Hilaire","zipcode":"8518085180"},{"name":"La Closerie","city":"Ansouis","zipcode":"84240"},{"name":"Au Souper Fin","city":"FrichemesnilFrichemesnil","zipcode":"7669076690"},{"name":"Le Lièvre Gourmand","city":"OrléansOrléans","zipcode":"4500045000"},{"name":"Septime","city":"ParisParis","zipcode":"7501175011"},{"name":"La Ribaudière","city":"Bourg-CharenteBourg-Charente","zipcode":"1620016200"},{"name":"Meulien","city":"TournusTournus","zipcode":"7170071700"},{"name":"L'Essentiel","city":"Périgueux","zipcode":"24000"},{"name":"Brikéténia","city":"GuétharyGuéthary","zipcode":"6421064210"},{"name":"Auberge du Vert Mont\n      Auberge du Vert Mont","city":"Boeschepe","zipcode":"59299"},{"name":"La Coquerie","city":"SèteSète","zipcode":"3420034200"},{"name":"Le Favre d'Anne","city":"Angers","zipcode":"49000"},{"name":"Le Camélia","city":"Bougival","zipcode":"78380"},{"name":"Le Village","city":"Marly-le-RoiMarly-le-Roi","zipcode":"7816078160"},{"name":"La Table d'Eugène","city":"Paris","zipcode":"75018"},{"name":"Le Bon Accueil","city":"MalbuissonMalbuisson","zipcode":"2516025160"},{"name":"La Rastègue","city":"Bormes-les-MimosasBormes-les-Mimosas","zipcode":"8323083230"},{"name":"Aux Terrasses","city":"TournusTournus","zipcode":"7170071700"},{"name":"Miraflores","city":"LyonLyon","zipcode":"6900669006"},{"name":"Le Foch","city":"ReimsReims","zipcode":"5110051100"},{"name":"Auberge du Dun","city":"Le Bourg-DunLe Bourg-Dun","zipcode":"7674076740"},{"name":"Le Park 45\n      Le Park 45","city":"Cannes","zipcode":"06400"},{"name":"La Marande","city":"MontbelletMontbellet","zipcode":"7126071260"},{"name":"La Gloire","city":"MontargisMontargis","zipcode":"4520045200"},{"name":"Auberge St-Jean","city":"Saint-Jean-de-BlaignacSaint-Jean-de-Blaignac","zipcode":"3342033420"},{"name":"Vieux Pont","city":"BelcastelBelcastel","zipcode":"1239012390"},{"name":"Le Belvédère","city":"BozoulsBozouls","zipcode":"1234012340"},{"name":"L'Atlantide 1874 - Maison Guého","city":"NantesNantes","zipcode":"4410044100"},{"name":"Tour d'Argent","city":"ParisParis","zipcode":"7500575005"},{"name":"Le Moulin d'Alotz","city":"AlotzAlotz","zipcode":"6420064200"},{"name":"Le Cerf","city":"MarlenheimMarlenheim","zipcode":"6752067520"},{"name":"Le Pily","city":"Cherbourg-en-CotentinCherbourg-en-Cotentin","zipcode":"5010050100"},{"name":"Château du Mont Joly","city":"SampansSampans","zipcode":"3910039100"},{"name":"Étincelles - La Gentilhommière","city":"Sainte-SabineSainte-Sabine","zipcode":"2444024440"},{"name":"L'Aubergade","city":"DuryDury","zipcode":"8048080480"},{"name":"La Table des Cordeliers\n      La Table des Cordeliers","city":"Condom","zipcode":"32100"},{"name":"Le Jules Verne","city":"ParisParis","zipcode":"7500775007"},{"name":"Le Prieuré\n      Le Prieuré","city":"Ambierle","zipcode":"42820"},{"name":"Mon Plaisir","city":"ChamesolChamesol","zipcode":"2519025190"},{"name":"Côté Jardin","city":"GienGien","zipcode":"4550045500"},{"name":"Jérémy Galvan","city":"Lyon 05","zipcode":"69005"},{"name":"La Ville Blanche","city":"RospezRospez","zipcode":"2230022300"},{"name":"Lou Cigalon-Maison Martin\n      Lou Cigalon-Maison Martin","city":"Valbonne","zipcode":"06560"},{"name":"La Roya","city":"Saint-FlorentSaint-Florent","zipcode":"2021720217"},{"name":"Le Prieuré\n      Le Prieuré","city":"Villeneuve-lès-Avignon","zipcode":"30400"},{"name":"La Robe","city":"MontaiguMontaigu","zipcode":"8560085600"},{"name":"Château Blanchard\n      Château Blanchard","city":"Chazelles-sur-Lyon","zipcode":"42140"},{"name":"Le Pêché Gourmand","city":"BriançonBriançon","zipcode":"0510005100"},{"name":"La Fourchette du Printemps","city":"Paris","zipcode":"75017"},{"name":"À Contre Sens","city":"CaenCaen","zipcode":"1400014000"},{"name":"Table - Bruno Verjus","city":"ParisParis","zipcode":"7501275012"},{"name":"Auberge Le Prieuré\n      Auberge Le Prieuré","city":"Moirax","zipcode":"47310"},{"name":"Haut Bonheur de la Table","city":"CasselCassel","zipcode":"5967059670"},{"name":"L'Éveil des Sens","city":"MayenneMayenne","zipcode":"5310053100"},{"name":"Le Moulin des Quatre Saisons","city":"La FlècheLa Flèche","zipcode":"7220072200"},{"name":"Val d'Auge\n      Val d'Auge","city":"Bondues","zipcode":"59910"},{"name":"L'Alchémille","city":"KaysersbergKaysersberg","zipcode":"6824068240"},{"name":"Le Sérac","city":"Saint-Gervais-les-BainsSaint-Gervais-les-Bains","zipcode":"7417074170"},{"name":"L'Orée de la Forêt","city":"ÉtouyÉtouy","zipcode":"6060060600"},{"name":"Palm Beach","city":"AjaccioAjaccio","zipcode":"2000020000"},{"name":"Yam'Tcha","city":"ParisParis","zipcode":"7500175001"},{"name":"La Bonne Auberge","city":"Stiring-Wendel","zipcode":"57350"},{"name":"Apicius","city":"ParisParis","zipcode":"7500875008"},{"name":"Henri et Joseph","city":"LorientLorient","zipcode":"5610056100"},{"name":"Les Pyrénées","city":"Saint-Jean-Pied-de-PortSaint-Jean-Pied-de-Port","zipcode":"6422064220"},{"name":"Gaya Rive Gauche par Pierre Gagnaire","city":"ParisParis","zipcode":"7500775007"},{"name":"Château de la Treyne","city":"LacaveLacave","zipcode":"4620046200"},{"name":"Intuition","city":"Saint-Lô","zipcode":"50000"},{"name":"Gavroche","city":"StrasbourgStrasbourg","zipcode":"6700067000"},{"name":"Les Tables de Gaspard\n      Les Tables de Gaspard","city":"St-Crépin","zipcode":"05600"},{"name":"Le Montgomerie","city":"Courchevel 1850Courchevel 1850","zipcode":"7312073120"},{"name":"Le Château de Sable","city":"PorspoderPorspoder","zipcode":"2984029840"},{"name":"Mickaël Féval\n      Mickaël Féval","city":"Aix-en-Provence","zipcode":"13100"},{"name":"Laurent","city":"ParisParis","zipcode":"7500875008"},{"name":"Auberge St-Walfrid","city":"SarregueminesSarreguemines","zipcode":"5720057200"},{"name":"Clovis\n      Clovis","city":"Tourrettes-sur-Loup","zipcode":"06140"},{"name":"Allium","city":"QuimperQuimper","zipcode":"2900029000"},{"name":"Le Pot d'Étain","city":"DanjoutinDanjoutin","zipcode":"9040090400"},{"name":"L'Hysope\n      L'Hysope","city":"La Jarrie","zipcode":"17220"},{"name":"Château de Codignat","city":"Bort-l'ÉtangBort-l'Étang","zipcode":"6319063190"},{"name":"L'Aromate\n      L'Aromate","city":"Nice","zipcode":"06000"},{"name":"Les Genêts","city":"Brem-sur-Mer","zipcode":"85470"},{"name":"Le St-Martin","city":"MontbéliardMontbéliard","zipcode":"2520025200"},{"name":"L'Océan\n      L'Océan","city":"Saint-Jean-de-Luz","zipcode":"64500"},{"name":"Pages","city":"ParisParis","zipcode":"7501675016"},{"name":"La Vieille Tour","city":"PlérinPlérin","zipcode":"2219022190"},{"name":"La Marine","city":"Barneville-CarteretBarneville-Carteret","zipcode":"5027050270"},{"name":"Azimut","city":"Courchevel-Saint-BonCourchevel-Saint-Bon","zipcode":"7312073120"},{"name":"Le Grand Restaurant - Jean-François Piège","city":"ParisParis","zipcode":"7500875008"},{"name":"Rodolphe","city":"RouenRouen","zipcode":"7600076000"},{"name":"L'Émulsion","city":"Saint-Alban-de-RocheSaint-Alban-de-Roche","zipcode":"3808038080"},{"name":"Le Clos St-Pierre","city":"Le RouretLe Rouret","zipcode":"0665006650"},{"name":"Le Pousse-Pied\n      Le Pousse-Pied","city":"La Tranche-sur-Mer","zipcode":"85360"},{"name":"Garopapilles\n      Garopapilles","city":"Bordeaux","zipcode":"33000"},{"name":"Le Pavillon","city":"Le Touquet-Paris-PlageLe Touquet-Paris-Plage","zipcode":"6252062520"},{"name":"Racine","city":"ReimsReims","zipcode":"5110051100"},{"name":"Château de Vauchoux\n      Château de Vauchoux","city":"Vauchoux","zipcode":"70170"},{"name":"Le Marcq\n      Le Marcq","city":"Marcq-en-Barœul","zipcode":"59700"},{"name":"U Santa Marina\n      U Santa Marina","city":"Porto-Vecchio","zipcode":"20137"},{"name":"Pèir\n      Pèir","city":"Gordes","zipcode":"84220"},{"name":"Palégrié\n      Palégrié","city":"Corrençon-en-Vercors","zipcode":"38250"},{"name":"La Table by La Villa\n      La Table by La Villa","city":"Calvi","zipcode":"20260"}]