[{
  "name": "Agapé",
  "city": "Paris 17",
  "zipcode": "75017",
  "star": 1
}, {
  "name": "Le Jardin des Remparts",
  "city": "Beaune",
  "zipcode": "21200",
  "star": 1
}, {
  "name": "Frédéric Doucet",
  "city": "Charolles",
  "zipcode": "71120",
  "star": 1
}, {
  "name": "Le Pré Catelan",
  "city": "Paris",
  "zipcode": "75016",
  "star": 3
}, {
  "name": "Auberge de l'Île Barbe",
  "city": "Lyon 09",
  "zipcode": "69009",
  "star": 1
}, {
  "name": "Aigue Marine",
  "city": "Tréguier",
  "zipcode": "22220",
  "star": 1
}, {
  "name": "Le 39V",
  "city": "Paris 08",
  "zipcode": "75008",
  "star": 1
}, {
  "name": "Le Saint-Estève",
  "city": "Le Tholonet",
  "zipcode": "13100",
  "star": 1
}, {
  "name": "JY'S",
  "city": "Colmar",
  "zipcode": "68000",
  "star": 2
}, {
  "name": "Restaurant du Palais Royal",
  "city": "Paris 01",
  "zipcode": "75001",
  "star": 1
}, {
  "name": "Les Pêcheurs",
  "city": "Antibes",
  "zipcode": "06600",
  "star": 1
}, {
  "name": "La Table de Franck Putelat",
  "city": "Carcassonne",
  "zipcode": "11000",
  "star": 2
}, {
  "name": "Le Restaurant",
  "city": "Paris 06",
  "zipcode": "75006",
  "star": 1
}, {
  "name": "Christophe Bacquié",
  "city": "Le Castellet",
  "zipcode": "83330",
  "star": 3
}, {
  "name": "Paul Bocuse",
  "city": "Collonges-au-Mont-d'Or",
  "zipcode": "69660",
  "star": 3
}, {
  "name": "L'Orangerie du Château",
  "city": "Blois",
  "zipcode": "41000",
  "star": 1
}, {
  "name": "Fanny Rey & Jonathan Wahid",
  "city": "SAINT REMY DE PROVENCE",
  "zipcode": "13210",
  "star": 1
}, {
  "name": "Les Tablettes de Jean-Louis Nomicos",
  "city": "Paris",
  "zipcode": "75016",
  "star": 1
}, {
  "name": "La Liégeoise",
  "city": "Wimereux",
  "zipcode": "62930",
  "star": 1
}, {
  "name": "Paloma",
  "city": "Mougins",
  "zipcode": "06250",
  "star": 2
}, {
  "name": "Le Saint-James",
  "city": "BOULIAC",
  "zipcode": "33270",
  "star": 1
}, {
  "name": "Patrick Jeffroy",
  "city": "Carantec",
  "zipcode": "29660",
  "star": 2
}, {
  "name": "Mère Brazier",
  "city": "LYON",
  "zipcode": "69001",
  "star": 2
}, {
  "name": "Le Violon d'Ingres",
  "city": "Paris",
  "zipcode": "75007",
  "star": 1
}, {
  "name": "La Tour des Vents",
  "city": "Monbazillac",
  "zipcode": "24240",
  "star": 1
}, {
  "name": "Le Moulin du Roc",
  "city": "Champagnac-de-Belair",
  "zipcode": "24530",
  "star": 1
}, {
  "name": "Têtedoie",
  "city": "Lyon 05",
  "zipcode": "69005",
  "star": 1
}, {
  "name": "Le Cloître",
  "city": "Mane",
  "zipcode": "04300",
  "star": 1
}, {
  "name": "Sur Mesure par Thierry Marx",
  "city": "Paris",
  "zipcode": "75001",
  "star": 2
}, {
  "name": "L'Almandin",
  "city": "Saint-Cyprien",
  "zipcode": "66750",
  "star": 1
}, {
  "name": "Le Quinzième - Cyril Lignac",
  "city": "Paris",
  "zipcode": "75015",
  "star": 1
}, {
  "name": "Le Relais Bernard Loiseau",
  "city": "Saulieu",
  "zipcode": "21210",
  "star": 2
}, {
  "name": "Hostellerie de l'Abbaye de la Celle",
  "city": "La Celle",
  "zipcode": "83170",
  "star": 1
}, {
  "name": "Le Taillevent",
  "city": "Paris",
  "zipcode": "75008",
  "star": 2
}, {
  "name": "1217",
  "city": "Bagnols",
  "zipcode": "69620",
  "star": 1
}, {
  "name": "Assiette Champenoise",
  "city": "Tinqueux",
  "zipcode": "51430",
  "star": 3
}, {
  "name": "Hostellerie Bérard",
  "city": "LA-CADIERE-D'AZUR",
  "zipcode": "83740",
  "star": 1
}, {
  "name": "Numéro 3",
  "city": "Le Tremblay-sur-Mauldre",
  "zipcode": "78490",
  "star": 1
}, {
  "name": "Le Chiberta",
  "city": "Paris 08",
  "zipcode": "75008",
  "star": 1
}, {
  "name": "Le Petit Nice",
  "city": "Marseille 07",
  "zipcode": "13007",
  "star": 3
}, {
  "name": "La Barbacane",
  "city": "Carcassonne",
  "zipcode": "11000",
  "star": 1
}, {
  "name": "Le Fanal",
  "city": "Banyuls-sur-Mer",
  "zipcode": "66650",
  "star": 1
}, {
  "name": "Au Trou Gascon",
  "city": "Paris",
  "zipcode": "75012",
  "star": 1
}, {
  "name": "Carré des Feuillants",
  "city": "Paris 01",
  "zipcode": "75001",
  "star": 2
}, {
  "name": "Le Hittau",
  "city": "SAINT-VINCENT-DE-TYROSSE",
  "zipcode": "40230",
  "star": 1
}, {
  "name": "Dominique Bouchet",
  "city": "Paris",
  "zipcode": "75008",
  "star": 1
}, {
  "name": "G.a. au Manoir de Rétival",
  "city": "Caudebec-en-Caux",
  "zipcode": "76490",
  "star": 1
}, {
  "name": "Mirazur",
  "city": "Menton",
  "zipcode": "06500",
  "star": 2
}, {
  "name": "Gill",
  "city": "Rouen",
  "zipcode": "76000",
  "star": 2
}, {
  "name": "Le Magasin aux Vivres",
  "city": "Metz",
  "zipcode": "57000",
  "star": 1
}, {
  "name": "La Marelle",
  "city": "Péronnas",
  "zipcode": "01960",
  "star": 1
}, {
  "name": "La Dame de Pic",
  "city": "Paris 01",
  "zipcode": "75001",
  "star": 1
}, {
  "name": "Le Pressoir",
  "city": "Saint-Avé",
  "zipcode": "56890",
  "star": 1
}, {
  "name": "Château de Pray",
  "city": "Amboise",
  "zipcode": "37400",
  "star": 1
}, {
  "name": "La Bastide de Moustiers",
  "city": "Moustiers-Sainte-Marie",
  "zipcode": "04360",
  "star": 1
}, {
  "name": "Il Carpaccio",
  "city": "Paris 08",
  "zipcode": "75008",
  "star": 1
}, {
  "name": "Aux Pesked",
  "city": "Saint-Brieuc",
  "zipcode": "22000",
  "star": 1
}, {
  "name": "En Marge",
  "city": "AUREVILLE",
  "zipcode": "31320",
  "star": 1
}, {
  "name": "Auberge du Vieux Puits",
  "city": "Fontjoncouse",
  "zipcode": "11360",
  "star": 3
}, {
  "name": "Domaine d'Auriac",
  "city": "Carcassonne",
  "zipcode": "11000",
  "star": 1
}, {
  "name": "L'Oustau de Baumanière",
  "city": "Les Baux-de-Provence",
  "zipcode": "13520",
  "star": 2
}, {
  "name": "Les Fresques",
  "city": "Monestier",
  "zipcode": "24240",
  "star": 1
}, {
  "name": "Bruno",
  "city": "Lorgues",
  "zipcode": "83510",
  "star": 1
}, {
  "name": "Le Brittany",
  "city": "Roscoff",
  "zipcode": "29681",
  "star": 1
}, {
  "name": "La Maison de Bournissac",
  "city": "Les Paluds-des-Noves",
  "zipcode": "13550",
  "star": 1
}, {
  "name": "Le Quincangrogne",
  "city": "Dampmart",
  "zipcode": "77400",
  "star": 1
}, {
  "name": "Auberge du Bon Laboureur",
  "city": "Chenonceaux",
  "zipcode": "37150",
  "star": 1
}, {
  "name": "J.-M. Pérochon",
  "city": "Brétignolles-sur-Mer",
  "zipcode": "85470",
  "star": 1
}, {
  "name": "Les Bacchanales",
  "city": "VENCE",
  "zipcode": "06140",
  "star": 1
}, {
  "name": "Les Bas-Rupts",
  "city": "Bas-Rupts",
  "zipcode": "88400",
  "star": 1
}, {
  "name": "1920",
  "city": "Megève",
  "zipcode": "74120",
  "star": 2
}, {
  "name": "Stéphane Derbord",
  "city": "Dijon",
  "zipcode": "21000",
  "star": 1
}, {
  "name": "Auberge des Templiers",
  "city": "Les Bézards",
  "zipcode": "45290",
  "star": 1
}, {
  "name": "Relais de la Poste",
  "city": "LA-WANTZENAU",
  "zipcode": "67610",
  "star": 1
}, {
  "name": "La Coopérative",
  "city": "Bélesta",
  "zipcode": "66720",
  "star": 1
}, {
  "name": "Ô Flaveurs",
  "city": "Douvaine",
  "zipcode": "74140",
  "star": 1
}, {
  "name": "Le Clarence",
  "city": "Paris 08",
  "zipcode": "75008",
  "star": 2
}, {
  "name": "La Table de Patrick Raingeard",
  "city": "EZE-BORD-DE-MER",
  "zipcode": "06360",
  "star": 1
}, {
  "name": "Raphaël Vionnet",
  "city": "Thonon-les-Bains",
  "zipcode": "74200",
  "star": 1
}, {
  "name": "Ivan Vautier",
  "city": "Caen",
  "zipcode": "14000",
  "star": 1
}, {
  "name": "Yoann Conte",
  "city": "Veyrier-du-Lac",
  "zipcode": "74290",
  "star": 2
}, {
  "name": "L'Atelier d'Edmond",
  "city": "Val-d'Isère",
  "zipcode": "73150",
  "star": 2
}, {
  "name": "Le Coquillage",
  "city": "Saint-Méloir-des-Ondes",
  "zipcode": "35350",
  "star": 1
}, {
  "name": "L'Essentiel",
  "city": "DEAUVILLE",
  "zipcode": "14800",
  "star": 1
}, {
  "name": "Maison Clovis",
  "city": "Lyon",
  "zipcode": "69006",
  "star": 1
}, {
  "name": "La Rotonde",
  "city": "LA-TOUR-DE-SALVAGNY",
  "zipcode": "69890",
  "star": 1
}, {
  "name": "Le Bénaton",
  "city": "BEAUNE",
  "zipcode": "21200",
  "star": 1
}, {
  "name": "Ithurria",
  "city": "Ainhoa",
  "zipcode": "64250",
  "star": 1
}, {
  "name": "Relais de la Poste",
  "city": "Magescq",
  "zipcode": "40140",
  "star": 2
}, {
  "name": "Le Moulin de l'Abbaye",
  "city": "BRANTOME",
  "zipcode": "24310",
  "star": 1
}, {
  "name": "Chez Michèle",
  "city": "Languimberg",
  "zipcode": "57810",
  "star": 1
}, {
  "name": "Le Kléber",
  "city": "Crest",
  "zipcode": "26400",
  "star": 1
}, {
  "name": "L'Aparté",
  "city": "MONTRABE",
  "zipcode": "31850",
  "star": 1
}, {
  "name": "Auguste",
  "city": "Paris 07",
  "zipcode": "75007",
  "star": 1
}, {
  "name": "Dyades au Domaine des Étangs",
  "city": "MASSIGNAC",
  "zipcode": "16310",
  "star": 1
}, {
  "name": "Le Cerisier",
  "city": "LAVENTIE",
  "zipcode": "62840",
  "star": 1
}, {
  "name": "L'Auberge Basque",
  "city": "Saint-Pée-sur-Nivelle",
  "zipcode": "64310",
  "star": 1
}, {
  "name": "La Bonne Étape",
  "city": "Château-Arnoux",
  "zipcode": "04160",
  "star": 1
}, {
  "name": "Restaurant du Château",
  "city": "Chancelade",
  "zipcode": "24650",
  "star": 1
}, {
  "name": "Le Pavillon des Boulevards",
  "city": "Bordeaux",
  "zipcode": "33000",
  "star": 1
}, {
  "name": "Château de Courban",
  "city": "Courban",
  "zipcode": "21520",
  "star": 1
}, {
  "name": "Pierre Gagnaire",
  "city": "Paris 08",
  "zipcode": "75008",
  "star": 3
}, {
  "name": "William Frachot",
  "city": "DIJON",
  "zipcode": "21000",
  "star": 2
}, {
  "name": "Alain Llorca",
  "city": "La Colle-sur-Loup",
  "zipcode": "06480",
  "star": 1
}, {
  "name": "Le Pergolèse",
  "city": "Paris",
  "zipcode": "75116",
  "star": 1
}, {
  "name": "Loiseau rive Gauche",
  "city": "Paris 07",
  "zipcode": "75007",
  "star": 1
}, {
  "name": "Loiseau des Vignes",
  "city": "Beaune",
  "zipcode": "21200",
  "star": 1
}, {
  "name": "La Chaumière",
  "city": "Dole",
  "zipcode": "39100",
  "star": 1
}, {
  "name": "Pierre Orsi",
  "city": "Lyon 06",
  "zipcode": "69006",
  "star": 1
}, {
  "name": "Hostellerie du Rosenmeer",
  "city": "ROSHEIM",
  "zipcode": "67560",
  "star": 1
}, {
  "name": "Initial",
  "city": "Caen",
  "zipcode": "14000",
  "star": 1
}, {
  "name": "L'Auberge de la Pomme",
  "city": "Les Damps",
  "zipcode": "27340",
  "star": 1
}, {
  "name": "Julien Binz",
  "city": "Ammerschwihr",
  "zipcode": "68770",
  "star": 1
}, {
  "name": "La Licorne Royale",
  "city": "Lyons-la-Forêt",
  "zipcode": "27480",
  "star": 1
}, {
  "name": "Alléno Paris au Pavillon Ledoyen",
  "city": "Paris",
  "zipcode": "75008",
  "star": 3
}, {
  "name": "Domaine de Clairefontaine",
  "city": "Chonas-l'Amballan",
  "zipcode": "38121",
  "star": 1
}, {
  "name": "Faventia",
  "city": "Tourrettes",
  "zipcode": "83440",
  "star": 1
}, {
  "name": "Le M",
  "city": "Brest",
  "zipcode": "29200",
  "star": 1
}, {
  "name": "L'Ekrin by Laurent Azoulay",
  "city": "MERIBEL",
  "zipcode": "73550",
  "star": 1
}, {
  "name": "Les Morainières",
  "city": "Jongieux",
  "zipcode": "73170",
  "star": 2
}, {
  "name": "Le Baudelaire",
  "city": "Paris 01",
  "zipcode": "75001",
  "star": 1
}, {
  "name": "Le Moulin de la Gorce",
  "city": "La Roche-l'Abeille",
  "zipcode": "87800",
  "star": 1
}, {
  "name": "Le Prince Noir - Vivien Durand",
  "city": "Lormont",
  "zipcode": "33310",
  "star": 1
}, {
  "name": "Le Clos des Sens",
  "city": "Annecy",
  "zipcode": "74940",
  "star": 2
}, {
  "name": "Le Chantecler",
  "city": "NICE",
  "zipcode": "06000",
  "star": 2
}, {
  "name": "Le Carmin",
  "city": "Beaune",
  "zipcode": "21200",
  "star": 1
}, {
  "name": "Benoit",
  "city": "Paris 04",
  "zipcode": "75004",
  "star": 1
}, {
  "name": "Hostellerie la Montagne",
  "city": "COLOMBEY-LES-DEUX-EGLISES",
  "zipcode": "52330",
  "star": 1
}, {
  "name": "Entre Vigne et Garrigue",
  "city": "Pujaut",
  "zipcode": "30131",
  "star": 1
}, {
  "name": "Au Vieux Couvent",
  "city": "Rhinau",
  "zipcode": "67860",
  "star": 1
}, {
  "name": "Le Bouche à Oreille",
  "city": "Boutervilliers",
  "zipcode": "91150",
  "star": 1
}, {
  "name": "Le Refuge des Gourmets",
  "city": "Machilly",
  "zipcode": "74140",
  "star": 1
}, {
  "name": "Maximin Hellio",
  "city": "DEAUVILLE",
  "zipcode": "14800",
  "star": 1
}, {
  "name": "Greuze",
  "city": "Tournus",
  "zipcode": "71700",
  "star": 1
}, {
  "name": "L'Oasis",
  "city": "La Napoule",
  "zipcode": "06210",
  "star": 2
}, {
  "name": "JAN",
  "city": "Nice",
  "zipcode": "06000",
  "star": 1
}, {
  "name": "Une Table au Sud",
  "city": "Marseille",
  "zipcode": "13002",
  "star": 1
}, {
  "name": "Hostellerie Les Gorges de Pennafort",
  "city": "Callas",
  "zipcode": "83830",
  "star": 1
}, {
  "name": "Auberge La Pomme d'Api",
  "city": "Saint-Pol-de-Léon",
  "zipcode": "29250",
  "star": 1
}, {
  "name": "La Madeleine",
  "city": "Sens",
  "zipcode": "89100",
  "star": 1
}, {
  "name": "Le Corot",
  "city": "VILLE-D'AVRAY",
  "zipcode": "92410",
  "star": 1
}, {
  "name": "Le Relais des Moines",
  "city": "Les Arcs",
  "zipcode": "83460",
  "star": 1
}, {
  "name": "Cyril Attrazic",
  "city": "Aumont-Aubrac",
  "zipcode": "48130",
  "star": 1
}, {
  "name": "Pont de l'Ouysse",
  "city": "Lacave",
  "zipcode": "46200",
  "star": 1
}, {
  "name": "Les Hautes Roches",
  "city": "Rochecorbon",
  "zipcode": "37210",
  "star": 1
}, {
  "name": "Auberge Tiegezh",
  "city": "GuerGuer",
  "zipcode": "5638056380",
  "star": 1
}, {
  "name": "Le Grand Cerf",
  "city": "Montchenot",
  "zipcode": "51500",
  "star": 1
}, {
  "name": "La Grande Cascade",
  "city": "Paris",
  "zipcode": "75016",
  "star": 1
}, {
  "name": "Le Jardin de Benjamin",
  "city": "Lorgues",
  "zipcode": "83510",
  "star": 1
}, {
  "name": "Villa Archange",
  "city": "Le Cannet",
  "zipcode": "06110",
  "star": 2
}, {
  "name": "Sylvestre",
  "city": "Paris",
  "zipcode": "75007",
  "star": 2
}, {
  "name": "Le Carrousel",
  "city": "MARINGUES",
  "zipcode": "63350",
  "star": 1
}, {
  "name": "MaSa",
  "city": "Boulogne-Billancourt",
  "zipcode": "92100",
  "star": 1
}, {
  "name": "La Gouesnière",
  "city": "Saint-Méloir-des-Ondes",
  "zipcode": "35350",
  "star": 1
}, {
  "name": "Anne de Bretagne",
  "city": "La Plaine-sur-Mer",
  "zipcode": "44770",
  "star": 2
}, {
  "name": "Le Pré du Moulin",
  "city": "Sérignan-du-Comtat",
  "zipcode": "84830",
  "star": 1
}, {
  "name": "La Scène",
  "city": "Paris",
  "zipcode": "75008",
  "star": 1
}, {
  "name": "Villa René Lalique",
  "city": "Wingen-sur-Moder",
  "zipcode": "67290",
  "star": 2
}, {
  "name": "Domaine de Rochevilaine",
  "city": "Billiers",
  "zipcode": "56190",
  "star": 1
}, {
  "name": "La Villa Madie",
  "city": "Cassis",
  "zipcode": "13260",
  "star": 2
}, {
  "name": "Château de Sully",
  "city": "Sully",
  "zipcode": "14400",
  "star": 1
}, {
  "name": "1912",
  "city": "Trouville-sur-Mer",
  "zipcode": "14360",
  "star": 1
}, {
  "name": "La Grand'Vigne",
  "city": "Martillac",
  "zipcode": "33650",
  "star": 2
}, {
  "name": "Maison Kieny",
  "city": "Riedisheim",
  "zipcode": "68400",
  "star": 1
}, {
  "name": "Domaine des Séquoias",
  "city": "Ruy",
  "zipcode": "38300",
  "star": 1
}, {
  "name": "Auberge de l'Ill",
  "city": "Illhaeusern",
  "zipcode": "68970",
  "star": 3
}, {
  "name": "Le Meurice Alain Ducasse",
  "city": "Paris",
  "zipcode": "75001",
  "star": 2
}, {
  "name": "L'Auberge des Glazicks",
  "city": "PLOMODIERN",
  "zipcode": "29550",
  "star": 2
}, {
  "name": "Helen",
  "city": "Paris",
  "zipcode": "75008",
  "star": 1
}, {
  "name": "L'Ambroisie",
  "city": "Paris",
  "zipcode": "75004",
  "star": 3
}, {
  "name": "Girardin",
  "city": "Colmar",
  "zipcode": "68000",
  "star": 1
}, {
  "name": "La Table des Merville",
  "city": "Castanet-Tolosan",
  "zipcode": "31320",
  "star": 1
}, {
  "name": "Le Vivarais",
  "city": "VALS-LES-BAINS",
  "zipcode": "07600",
  "star": 1
}, {
  "name": "Michel Chabran - La Grande Table",
  "city": "Pont-de-l'Isère",
  "zipcode": "26600",
  "star": 1
}, {
  "name": "Pic",
  "city": "Valence",
  "zipcode": "26000",
  "star": 3
}, {
  "name": "L'Odas",
  "city": "Rouen",
  "zipcode": "76000",
  "star": 1
}, {
  "name": "Auberge du Cheval Blanc",
  "city": "Lembach",
  "zipcode": "67510",
  "star": 2
}, {
  "name": "Jérôme Brochot",
  "city": "Montceau-les-Mines",
  "zipcode": "71300",
  "star": 1
}, {
  "name": "Le St-Placide",
  "city": "Saint-Malo",
  "zipcode": "35400",
  "star": 1
}, {
  "name": "Le Gabriel",
  "city": "Paris",
  "zipcode": "75008",
  "star": 2
}, {
  "name": "Le Parc Les Crayères",
  "city": "Reims",
  "zipcode": "51100",
  "star": 2
}, {
  "name": "La Côte Saint-Jacques",
  "city": "Joigny",
  "zipcode": "89300",
  "star": 2
}, {
  "name": "Radio",
  "city": "Chamalières",
  "zipcode": "63400",
  "star": 1
}, {
  "name": "Domaine des Hauts de Loire",
  "city": "Onzain",
  "zipcode": "41150",
  "star": 2
}, {
  "name": "L'Arnsbourg",
  "city": "Baerenthal",
  "zipcode": "57230",
  "star": 1
}, {
  "name": "Le Georges",
  "city": "CHARTRES",
  "zipcode": "28000",
  "star": 1
}, {
  "name": "Maison Decoret",
  "city": "Vichy",
  "zipcode": "03200",
  "star": 1
}, {
  "name": "Le Castellaras",
  "city": "Fayence",
  "zipcode": "83440",
  "star": 1
}, {
  "name": "Guy Savoy",
  "city": "Paris",
  "zipcode": "75006",
  "star": 3
}, {
  "name": "L'Arcane",
  "city": "Paris",
  "zipcode": "75018",
  "star": 1
}, {
  "name": "Lucas Carton",
  "city": "Paris 08",
  "zipcode": "75008",
  "star": 1
}, {
  "name": "Le Haut-Allier",
  "city": "Alleyras",
  "zipcode": "43580",
  "star": 1
}, {
  "name": "Georges Blanc",
  "city": "Vonnas",
  "zipcode": "01540",
  "star": 3
}, {
  "name": "Auberge de la Tour",
  "city": "MARCOLES",
  "zipcode": "15220",
  "star": 1
}, {
  "name": "Lasserre",
  "city": "Paris 08",
  "zipcode": "75008",
  "star": 1
}, {
  "name": "L'Amaryllis",
  "city": "Saint-Rémy",
  "zipcode": "71100",
  "star": 1
}, {
  "name": "Hostellerie Jérôme",
  "city": "La Turbie",
  "zipcode": "06320",
  "star": 2
}, {
  "name": "La Passagère",
  "city": "Juan-les-Pins",
  "zipcode": "06160",
  "star": 1
}, {
  "name": "Le Millénaire",
  "city": "Reims",
  "zipcode": "51100",
  "star": 1
}, {
  "name": "1131",
  "city": "La Bussière-sur-Ouche",
  "zipcode": "21360",
  "star": 1
}, {
  "name": "Manoir de la Boulaie",
  "city": "HAUTE-GOULAINE",
  "zipcode": "44115",
  "star": 2
}, {
  "name": "Shang Palace",
  "city": "Paris 16",
  "zipcode": "75016",
  "star": 1
}, {
  "name": "Frédéric Simonin",
  "city": "Paris",
  "zipcode": "75017",
  "star": 1
}, {
  "name": "Le Sénéchal",
  "city": "Sauveterre-de-Rouergue",
  "zipcode": "12800",
  "star": 1
}, {
  "name": "L'Amphitryon",
  "city": "Lorient",
  "zipcode": "56100",
  "star": 1
}, {
  "name": "Loiseau des Ducs",
  "city": "Dijon",
  "zipcode": "21000",
  "star": 1
}, {
  "name": "Flaveur",
  "city": "Nice",
  "zipcode": "06000",
  "star": 2
}, {
  "name": "Le Domaine du Colombier",
  "city": "Malataverne",
  "zipcode": "26780",
  "star": 1
}, {
  "name": "Les Terraillers",
  "city": "Biot",
  "zipcode": "06410",
  "star": 1
}, {
  "name": "Les Rosiers",
  "city": "Biarritz",
  "zipcode": "64200",
  "star": 1
}, {
  "name": "Jean-Luc Tartarin",
  "city": "Le Havre",
  "zipcode": "76600",
  "star": 2
}, {
  "name": "Les Explorateurs",
  "city": "VAL THORENS",
  "zipcode": "73440",
  "star": 1
}, {
  "name": "Le Jasmin",
  "city": "Saint-Sylvestre-sur-Lot",
  "zipcode": "47140",
  "star": 1
}, {
  "name": "Mavrommatis",
  "city": "Paris 05",
  "zipcode": "75005",
  "star": 1
}, {
  "name": "La Table de l'Espadon",
  "city": "Paris",
  "zipcode": "75001",
  "star": 2
}, {
  "name": "Alexandre",
  "city": "Garons",
  "zipcode": "30128",
  "star": 2
}, {
  "name": "Chapelle Saint-Martin",
  "city": "Nieul",
  "zipcode": "87510",
  "star": 1
}, {
  "name": "Origine",
  "city": "Rouen",
  "zipcode": "76000",
  "star": 1
}, {
  "name": "La Scène Thélème",
  "city": "PARIS",
  "zipcode": "75017",
  "star": 1
}, {
  "name": "La Palme d'Or",
  "city": "Cannes",
  "zipcode": "06400",
  "star": 2
}, {
  "name": "Régis et Jacques Marcon",
  "city": "SAINT-BONNET-LE-FROID",
  "zipcode": "43290",
  "star": 3
}, {
  "name": "Le Bois sans Feuilles",
  "city": "Ouches",
  "zipcode": "42155",
  "star": 3
}, {
  "name": "Pur' - Jean-François Rouquette",
  "city": "Paris 02",
  "zipcode": "75002",
  "star": 1
}, {
  "name": "Auberge de la Diligence",
  "city": "Loiré",
  "zipcode": "49440",
  "star": 1
}, {
  "name": "Le P'tit Polyte",
  "city": "Les Deux Alpes",
  "zipcode": "38860",
  "star": 1
}, {
  "name": "Neige d'Été",
  "city": "Paris 15",
  "zipcode": "75015",
  "star": 1
}, {
  "name": "Ô Saveurs",
  "city": "ROUFFIAC-TOLOSAN",
  "zipcode": "31180",
  "star": 1
}, {
  "name": "La Mare aux Oiseaux",
  "city": "Saint-Joachim",
  "zipcode": "44720",
  "star": 1
}, {
  "name": "Le Roc Alto",
  "city": "SAINT-VERAN",
  "zipcode": "05350",
  "star": 1
}, {
  "name": "La Table de La Butte",
  "city": "PLOUIDER",
  "zipcode": "29260",
  "star": 1
}, {
  "name": "Le Candille",
  "city": "Mougins",
  "zipcode": "06250",
  "star": 1
}, {
  "name": "64° Le Restaurant",
  "city": "Kaysersberg",
  "zipcode": "68240",
  "star": 2
}, {
  "name": "Hélène Darroze",
  "city": "Paris 06",
  "zipcode": "75006",
  "star": 1
}, {
  "name": "L'Abeille",
  "city": "Paris 16",
  "zipcode": "75016",
  "star": 2
}, {
  "name": "L'Atelier de Gaztelur",
  "city": "Arcangues",
  "zipcode": "64200",
  "star": 1
}, {
  "name": "La Bastide St-Antoine",
  "city": "Grasse",
  "zipcode": "06130",
  "star": 1
}, {
  "name": "Ed.Em",
  "city": "Chassagne-Montrachet",
  "zipcode": "21190",
  "star": 1
}, {
  "name": "Antoine",
  "city": "Paris 16",
  "zipcode": "75116",
  "star": 1
}, {
  "name": "L'Épuisette",
  "city": "Marseille",
  "zipcode": "13007",
  "star": 1
}, {
  "name": "Flocons de Sel",
  "city": "Megève",
  "zipcode": "74120",
  "star": 3
}, {
  "name": "Auberge à la Bonne Idée",
  "city": "SAINT-JEAN-AUX-BOIS",
  "zipcode": "60350",
  "star": 1
}, {
  "name": "Cobéa",
  "city": "Paris 14",
  "zipcode": "75014",
  "star": 1
}, {
  "name": "Le Carré d'Alethius",
  "city": "Charmes-sur-Rhône",
  "zipcode": "07800",
  "star": 1
}, {
  "name": "Maison Rostang",
  "city": "Paris",
  "zipcode": "75017",
  "star": 2
}, {
  "name": "Auberge Frankenbourg",
  "city": "La Vancelle",
  "zipcode": "67730",
  "star": 1
}, {
  "name": "Alcyone",
  "city": "MARSEILLE",
  "zipcode": "13002",
  "star": 1
}, {
  "name": "Les Terrasses de Lyon",
  "city": "Lyon 05",
  "zipcode": "69005",
  "star": 1
}, {
  "name": "La Nouvelle Auberge",
  "city": "Wihr-au-Val",
  "zipcode": "68230",
  "star": 1
}, {
  "name": "Château d'Adoménil",
  "city": "Lunéville",
  "zipcode": "54300",
  "star": 1
}, {
  "name": "Hostellerie de Plaisance",
  "city": "Saint-Emilion",
  "zipcode": "33330",
  "star": 2
}, {
  "name": "Le Strasbourg",
  "city": "Bitche",
  "zipcode": "57230",
  "star": 1
}, {
  "name": "L'Escarbille",
  "city": "Meudon",
  "zipcode": "92190",
  "star": 1
}, {
  "name": "Alliance",
  "city": "Paris",
  "zipcode": "75005",
  "star": 1
}, {
  "name": "Hervé Busset",
  "city": "Conques",
  "zipcode": "12320",
  "star": 1
}, {
  "name": "Le Belrose",
  "city": "Gassin",
  "zipcode": "83580",
  "star": 1
}, {
  "name": "Les Prés d'Eugénie - Michel Guérard",
  "city": "Eugénie-les-Bains",
  "zipcode": "40320",
  "star": 3
}, {
  "name": "Épicure",
  "city": "Paris 08",
  "zipcode": "75008",
  "star": 3
}, {
  "name": "Les Jardins de l'Espadon",
  "city": "Paris",
  "zipcode": "75001",
  "star": 1
}, {
  "name": "Maison Lameloise",
  "city": "Chagny",
  "zipcode": "71150",
  "star": 3
}, {
  "name": "Penati al Baretto",
  "city": "Paris 08",
  "zipcode": "75008",
  "star": 1
}, {
  "name": "La Bergerie",
  "city": "Sarpoil",
  "zipcode": "63490",
  "star": 1
}, {
  "name": "Le Gindreau",
  "city": "Saint-Médard",
  "zipcode": "46150",
  "star": 2
}, {
  "name": "Ar Men Du",
  "city": "Névez",
  "zipcode": "29920",
  "star": 1
}, {
  "name": "L'Orangerie",
  "city": "Paris",
  "zipcode": "75008",
  "star": 1
}, {
  "name": "Armani Ristorante",
  "city": "Paris",
  "zipcode": "75006",
  "star": 1
}, {
  "name": "Atmosphères",
  "city": "Le Bourget-du-Lac",
  "zipcode": "73370",
  "star": 1
}, {
  "name": "Le Grand Véfour",
  "city": "Paris",
  "zipcode": "75001",
  "star": 2
}, {
  "name": "La Galinette",
  "city": "Perpignan",
  "zipcode": "66000",
  "star": 1
}, {
  "name": "Thierry Drapeau",
  "city": "Saint-Sulpice-le-Verdon",
  "zipcode": "85260",
  "star": 2
}, {
  "name": "Auberge de Clochemerle",
  "city": "VAUX-EN-BEAUJOLAIS",
  "zipcode": "69460",
  "star": 1
}, {
  "name": "L'Amphitryon",
  "city": "Colomiers",
  "zipcode": "31770",
  "star": 1
}, {
  "name": "Le Jardin des Plumes",
  "city": "Giverny",
  "zipcode": "27620",
  "star": 1
}, {
  "name": "Assa",
  "city": "Blois",
  "zipcode": "41000",
  "star": 1
}, {
  "name": "L'Atelier de Jean-Luc Rabanel",
  "city": "Arles",
  "zipcode": "13200",
  "star": 2
}, {
  "name": "L'Impertinent",
  "city": "Biarritz",
  "zipcode": "64200",
  "star": 1
}, {
  "name": "Le Farçon",
  "city": "La Tania",
  "zipcode": "73125",
  "star": 1
}, {
  "name": "Le Figuier de St-Esprit",
  "city": "Antibes",
  "zipcode": "06600",
  "star": 1
}, {
  "name": "La Maison d'à Côté",
  "city": "Montlivault",
  "zipcode": "41350",
  "star": 1
}, {
  "name": "Kasbür",
  "city": "Monswiller",
  "zipcode": "67700",
  "star": 1
}, {
  "name": "Il Cortile",
  "city": "Mulhouse",
  "zipcode": "68100",
  "star": 1
}, {
  "name": "Le Saison",
  "city": "Saint-Grégoire",
  "zipcode": "35760",
  "star": 1
}, {
  "name": "Le Domaine de la Corniche",
  "city": "Rolleboise",
  "zipcode": "78270",
  "star": 1
}, {
  "name": "Lamartine",
  "city": "Le Bourget du Lac",
  "zipcode": "73370",
  "star": 1
}, {
  "name": "Jérôme Nutile - Le Mas de Boudan",
  "city": "Nîmes",
  "zipcode": "30000",
  "star": 1
}, {
  "name": "Le Petit Hôtel du Grand Large",
  "city": "Portivy",
  "zipcode": "56510",
  "star": 1
}, {
  "name": "La Promenade",
  "city": "Le Petit-Pressigny",
  "zipcode": "37350",
  "star": 1
}, {
  "name": "Le Raisin",
  "city": "Pont-de-Vaux",
  "zipcode": "01190",
  "star": 1
}, {
  "name": "Le Patio",
  "city": "Arcachon",
  "zipcode": "33120",
  "star": 1
}, {
  "name": "Le Colombier",
  "city": "Offranville",
  "zipcode": "76550",
  "star": 1
}, {
  "name": "Nakatani",
  "city": "PARIS",
  "zipcode": "75007",
  "star": 1
}, {
  "name": "Le Manoir du Lys",
  "city": "Bagnoles-de-l'Orne",
  "zipcode": "61140",
  "star": 1
}, {
  "name": "Auberge au Boeuf",
  "city": "Sessenheim",
  "zipcode": "67770",
  "star": 1
}, {
  "name": "Château de Mercuès",
  "city": "Mercuès",
  "zipcode": "46090",
  "star": 1
}, {
  "name": "Le Cap",
  "city": "SAINT-JEAN-CAP-FERRAT",
  "zipcode": "06230",
  "star": 1
}, {
  "name": "Auberge de la Mine",
  "city": "La Ferrière-aux-Étangs",
  "zipcode": "61450",
  "star": 1
}, {
  "name": "Xavier Mathieu",
  "city": "Joucas",
  "zipcode": "84220",
  "star": 1
}, {
  "name": "Aux Anges",
  "city": "Roanne",
  "zipcode": "42300",
  "star": 1
}, {
  "name": "L'Olivier",
  "city": "Saint-Tropez",
  "zipcode": "83990",
  "star": 1
}, {
  "name": "Le Pressoir d'Argent - Gordon Ramsay",
  "city": "Bordeaux",
  "zipcode": "33000",
  "star": 2
}, {
  "name": "Kei",
  "city": "Paris 01",
  "zipcode": "75001",
  "star": 2
}, {
  "name": "La Fourchette des Ducs",
  "city": "Obernai",
  "zipcode": "67210",
  "star": 2
}, {
  "name": "La Grande Maison de Bernard Magrez",
  "city": "Bordeaux",
  "zipcode": "33000",
  "star": 2
}, {
  "name": "La Voile",
  "city": "Ramatuelle",
  "zipcode": "83350",
  "star": 1
}, {
  "name": "Les Terrasses d'Uriage",
  "city": "Uriage-les-Bains",
  "zipcode": "38410",
  "star": 2
}, {
  "name": "Alain Ducasse au Plaza Athénée",
  "city": "Paris",
  "zipcode": "75008",
  "star": 3
}, {
  "name": "Takao Takano",
  "city": "Lyon 06",
  "zipcode": "69006",
  "star": 2
}, {
  "name": "Le Mascaret",
  "city": "Blainville-sur-Mer",
  "zipcode": "50560",
  "star": 1
}, {
  "name": "La Table de la Bergerie",
  "city": "Champ-sur-Layon",
  "zipcode": "49380",
  "star": 1
}, {
  "name": "Les Fresques",
  "city": "Évian-les-Bains",
  "zipcode": "74500",
  "star": 1
}, {
  "name": "L'O des Vignes",
  "city": "Fuissé",
  "zipcode": "71960",
  "star": 1
}, {
  "name": "La Gourmandière - La Table d'Olivier",
  "city": "Vannes",
  "zipcode": "56000",
  "star": 1
}, {
  "name": "Auberge de l'Abbaye",
  "city": "Ambronay",
  "zipcode": "01500",
  "star": 1
}, {
  "name": "Les Ducs de Lorraine",
  "city": "Épinal",
  "zipcode": "88000",
  "star": 1
}, {
  "name": "La Table d'Uzès",
  "city": "Uzès",
  "zipcode": "30700",
  "star": 1
}, {
  "name": "AM par Alexandre Mazzia",
  "city": "Marseille",
  "zipcode": "13008",
  "star": 1
}, {
  "name": "Les Cèdres",
  "city": "Granges-les-Beaumont",
  "zipcode": "26600",
  "star": 2
}, {
  "name": "Les Clefs d'Argent",
  "city": "Mont-de-Marsan",
  "zipcode": "40000",
  "star": 1
}, {
  "name": "Grand Hôtel du Lion d'Or",
  "city": "Romorantin-Lanthenay",
  "zipcode": "41200",
  "star": 1
}, {
  "name": "Dominique Bucaille",
  "city": "Manosque",
  "zipcode": "04100",
  "star": 1
}, {
  "name": "Le Cinq",
  "city": "Paris 08",
  "zipcode": "75008",
  "star": 3
}, {
  "name": "René et Maxime Meilleur",
  "city": "Saint-Martin-de-Belleville",
  "zipcode": "73440",
  "star": 3
}, {
  "name": "Auberge St-Laurent",
  "city": "Sierentz",
  "zipcode": "68510",
  "star": 1
}, {
  "name": "Les Berceaux",
  "city": "Épernay",
  "zipcode": "51200",
  "star": 1
}, {
  "name": "L'Écrin",
  "city": "Paris",
  "zipcode": "75008",
  "star": 1
}, {
  "name": "Logis de la Cadène",
  "city": "Saint Emilion",
  "zipcode": "33330",
  "star": 1
}, {
  "name": "Apicius",
  "city": "Clermont-Ferrand",
  "zipcode": "63000",
  "star": 1
}, {
  "name": "Château Cordeillan-Bages",
  "city": "Pauillac",
  "zipcode": "33250",
  "star": 1
}, {
  "name": "Les Voiles d'Or",
  "city": "Dieppe",
  "zipcode": "76200",
  "star": 1
}, {
  "name": "Gordon Ramsay au Trianon",
  "city": "Versailles",
  "zipcode": "78000",
  "star": 1
}, {
  "name": "Jean-Claude Leclerc",
  "city": "Clermont-Ferrand",
  "zipcode": "63000",
  "star": 1
}, {
  "name": "SEPT",
  "city": "Toulouse",
  "zipcode": "31000",
  "star": 1
}, {
  "name": "La Pyramide-Patrick Henriroux",
  "city": "Vienne",
  "zipcode": "38200",
  "star": 2
}, {
  "name": "Restaurant des Rois",
  "city": "Beaulieu-sur-Mer",
  "zipcode": "06310",
  "star": 1
}, {
  "name": "L'Archeste",
  "city": "Paris",
  "zipcode": "75116",
  "star": 1
}, {
  "name": "Arpège",
  "city": "Paris",
  "zipcode": "75007",
  "star": 3
}, {
  "name": "1741",
  "city": "Strasbourg",
  "zipcode": "67000",
  "star": 1
}, {
  "name": "La Grange de Belle-Église",
  "city": "Belle-Église",
  "zipcode": "60540",
  "star": 1
}, {
  "name": "Les Bories",
  "city": "Gordes",
  "zipcode": "84220",
  "star": 1
}, {
  "name": "Toya",
  "city": "Faulquemont",
  "zipcode": "57380",
  "star": 1
}, {
  "name": "Le Kintessence",
  "city": "Courchevel 1850",
  "zipcode": "73120",
  "star": 2
}, {
  "name": "Le Clocher des Pères",
  "city": "Saint-Martin-sur-la-Chambre",
  "zipcode": "73130",
  "star": 1
}, {
  "name": "La Renaissance",
  "city": "Argentan",
  "zipcode": "61200",
  "star": 1
}, {
  "name": "Pierre",
  "city": "Mâcon",
  "zipcode": "71000",
  "star": 1
}, {
  "name": "Relais Louis XIII",
  "city": "Paris",
  "zipcode": "75006",
  "star": 1
}, {
  "name": "Rackham",
  "city": "ROSCOFF",
  "zipcode": "29680",
  "star": 1
}, {
  "name": "La Table Breizh Café",
  "city": "Cancale",
  "zipcode": "35260",
  "star": 1
}, {
  "name": "La Grignotière",
  "city": "Raismes",
  "zipcode": "59590",
  "star": 1
}, {
  "name": "Le Musigny",
  "city": "Valenciennes",
  "zipcode": "59300",
  "star": 1
}, {
  "name": "L'Arôme",
  "city": "Paris 08",
  "zipcode": "75008",
  "star": 1
}, {
  "name": "La Cachette",
  "city": "Valence",
  "zipcode": "26000",
  "star": 1
}, {
  "name": "La Vague d'Or",
  "city": "Saint-Tropez",
  "zipcode": "83990",
  "star": 3
}, {
  "name": "Le Bec au Cauchois",
  "city": "Valmont",
  "zipcode": "76540",
  "star": 1
}, {
  "name": "Le Clair de la Plume",
  "city": "Grignan",
  "zipcode": "26230",
  "star": 1
}, {
  "name": "La Matelote",
  "city": "BOULOGNE-SUR-MER",
  "zipcode": "62200",
  "star": 1
}, {
  "name": "L'Atelier du Peintre",
  "city": "Colmar",
  "zipcode": "68000",
  "star": 1
}, {
  "name": "Le Prieuré",
  "city": "Villeneuve-lès-Avignon",
  "zipcode": "30400",
  "star": 1
}, {
  "name": "Le France",
  "city": "VILLERS-LE-LAC",
  "zipcode": "25130",
  "star": 1
}, {
  "name": "Stéphane Tournié - Les Jardins de l'Opéra",
  "city": "Toulouse",
  "zipcode": "31000",
  "star": 1
}, {
  "name": "La Table",
  "city": "Lille",
  "zipcode": "59000",
  "star": 1
}, {
  "name": "Meurin",
  "city": "Busnes",
  "zipcode": "62350",
  "star": 2
}, {
  "name": "Les Loges",
  "city": "Lyon 05",
  "zipcode": "69005",
  "star": 1
}, {
  "name": "Maximilien",
  "city": "Zellenberg",
  "zipcode": "68340",
  "star": 1
}, {
  "name": "114, Faubourg",
  "city": "Paris 08",
  "zipcode": "75008",
  "star": 1
}, {
  "name": "La Table de Nans",
  "city": "La Ciotat",
  "zipcode": "13600",
  "star": 1
}, {
  "name": "Le Lido",
  "city": "Propriano",
  "zipcode": "20110",
  "star": 1
}, {
  "name": "Auberge du Pont d'Acigné",
  "city": "Noyal-sur-Vilaine",
  "zipcode": "35530",
  "star": 1
}, {
  "name": "La Table du Gourmet",
  "city": "Riquewihr",
  "zipcode": "68340",
  "star": 1
}, {
  "name": "Le Gourmet de Sèze",
  "city": "Lyon",
  "zipcode": "69006",
  "star": 1
}, {
  "name": "Skab",
  "city": "nimes",
  "zipcode": "30000",
  "star": 1
}, {
  "name": "La Table de l'Alpaga",
  "city": "Megève",
  "zipcode": "74120",
  "star": 1
}, {
  "name": "Auberge de la Charme",
  "city": "Prenois",
  "zipcode": "21370",
  "star": 1
}, {
  "name": "Le Saint-Martin",
  "city": "Vence",
  "zipcode": "06140",
  "star": 1
}, {
  "name": "Au Crocodile",
  "city": "STRASBOURG",
  "zipcode": "67000",
  "star": 1
}, {
  "name": "Jin",
  "city": "Paris",
  "zipcode": "75001",
  "star": 1
}, {
  "name": "La Lorraine",
  "city": "Zoufftgen",
  "zipcode": "57330",
  "star": 1
}, {
  "name": "La Marine",
  "city": "L'Herbaudière",
  "zipcode": "85330",
  "star": 2
}, {
  "name": "Le Bistro des Saveurs",
  "city": "Obernai",
  "zipcode": "67210",
  "star": 1
}, {
  "name": "La Chèvre d'Or",
  "city": "Èze",
  "zipcode": "06360",
  "star": 2
}, {
  "name": "La Maison dans le Parc",
  "city": "Nancy",
  "zipcode": "54000",
  "star": 1
}, {
  "name": "Copenhague",
  "city": "PARIS",
  "zipcode": "75008",
  "star": 1
}, {
  "name": "Le Vieux Logis",
  "city": "Trémolat",
  "zipcode": "24510",
  "star": 1
}, {
  "name": "Le 1947",
  "city": "Courchevel 1850",
  "zipcode": "73120",
  "star": 3
}, {
  "name": "La Table de Manville",
  "city": "LES-BAUX-DE-PROVENCE",
  "zipcode": "13520",
  "star": 1
}, {
  "name": "Fontevraud Le Restaurant",
  "city": "FONTEVRAUD-L'ABBAYE",
  "zipcode": "49590",
  "star": 1
}, {
  "name": "La Palmeraie",
  "city": "La Croix-Valmer",
  "zipcode": "83420",
  "star": 1
}, {
  "name": "Le Grand Bleu",
  "city": "Sarlat-la-Canéda",
  "zipcode": "24200",
  "star": 1
}, {
  "name": "Alan Geaam",
  "city": "Paris",
  "zipcode": "75016",
  "star": 1
}, {
  "name": "Le Pré - Xavier Beaudiment",
  "city": "Durtol",
  "zipcode": "63830",
  "star": 2
}, {
  "name": "Auberge des Saints Pères",
  "city": "Aulnay-sous-Bois",
  "zipcode": "93600",
  "star": 1
}, {
  "name": "Le Pavé d'Auge",
  "city": "Beuvron-en-Auge",
  "zipcode": "14430",
  "star": 1
}, {
  "name": "Auberge du Cellier",
  "city": "Montner",
  "zipcode": "66720",
  "star": 1
}, {
  "name": "Louison",
  "city": "Le Puy-Sainte-Réparade",
  "zipcode": "13610",
  "star": 1
}, {
  "name": "La Réserve Rimbaud",
  "city": "Montpellier",
  "zipcode": "34000",
  "star": 1
}, {
  "name": "Auberge Grand'Maison",
  "city": "Mûr-de-Bretagne",
  "zipcode": "22530",
  "star": 1
}, {
  "name": "Elsa",
  "city": "Roquebrune Cap-Martin",
  "zipcode": "06190",
  "star": 1
}, {
  "name": "Les Trois Soleils de Montal",
  "city": "Saint-Céré",
  "zipcode": "46400",
  "star": 1
}, {
  "name": "Casadelmar",
  "city": "Porto-Vecchio",
  "zipcode": "20137",
  "star": 2
}, {
  "name": "I Salti",
  "city": "Belgodère",
  "zipcode": "20226",
  "star": 1
}, {
  "name": "La Maison des Bois - Marc Veyrat",
  "city": "Manigod",
  "zipcode": "74230",
  "star": 3
}, {
  "name": "Flaveurs",
  "city": "Valence",
  "zipcode": "26000",
  "star": 1
}, {
  "name": "Stéphane Carbone",
  "city": "Caen",
  "zipcode": "14000",
  "star": 1
}, {
  "name": "Le Beaulieu",
  "city": "Le Mans",
  "zipcode": "72000",
  "star": 1
}, {
  "name": "L'Esquisse",
  "city": "Annecy",
  "zipcode": "74000",
  "star": 1
}, {
  "name": "L'Axel",
  "city": "Fontainebleau",
  "zipcode": "77300",
  "star": 1
}, {
  "name": "Aida",
  "city": "Paris",
  "zipcode": "75007",
  "star": 1
}, {
  "name": "Maison Jeunet",
  "city": "Arbois",
  "zipcode": "39600",
  "star": 2
}, {
  "name": "Auberge La Fenière",
  "city": "Cadenet",
  "zipcode": "84160",
  "star": 1
}, {
  "name": "Christopher Coutanceau",
  "city": "La Rochelle",
  "zipcode": "17000",
  "star": 2
}, {
  "name": "Dan B. - La Table de Ventabren",
  "city": "Ventabren",
  "zipcode": "13122",
  "star": 1
}, {
  "name": "L'Étang du Moulin",
  "city": "Bonnétage",
  "zipcode": "25210",
  "star": 1
}, {
  "name": "Les Trois Rochers",
  "city": "Sainte-Marine",
  "zipcode": "29120",
  "star": 1
}, {
  "name": "Une Île",
  "city": "Angers",
  "zipcode": "49000",
  "star": 1
}, {
  "name": "La Table du Connétable",
  "city": "Chantilly",
  "zipcode": "60500",
  "star": 1
}, {
  "name": "La Chassagnette",
  "city": "Arles",
  "zipcode": "13200",
  "star": 1
}, {
  "name": "Qui plume la Lune",
  "city": "Paris 11",
  "zipcode": "75011",
  "star": 1
}, {
  "name": "Le Passe Temps",
  "city": "Lyon",
  "zipcode": "69006",
  "star": 1
}, {
  "name": "Likoké",
  "city": "Les Vans",
  "zipcode": "07140",
  "star": 1
}, {
  "name": "La Table du 11",
  "city": "Versailles",
  "zipcode": "78000",
  "star": 1
}, {
  "name": "Albert 1er",
  "city": "Chamonix-Mont-Blanc",
  "zipcode": "74400",
  "star": 2
}, {
  "name": "Le Champ des Lunes",
  "city": "Lauris",
  "zipcode": "84360",
  "star": 1
}, {
  "name": "La Balette",
  "city": "Collioure",
  "zipcode": "66190",
  "star": 1
}, {
  "name": "Prairial",
  "city": "Lyon",
  "zipcode": "69001",
  "star": 1
}, {
  "name": "Maison Christian Étienne",
  "city": "Avignon",
  "zipcode": "84000",
  "star": 1
}, {
  "name": "Le Vivier",
  "city": "L'Isle-sur-la-Sorgue",
  "zipcode": "84800",
  "star": 1
}, {
  "name": "Auberge de la Brie",
  "city": "Couilly-Pont-aux-Dames",
  "zipcode": "77860",
  "star": 1
}, {
  "name": "Quai des Saveurs",
  "city": "Hagondange",
  "zipcode": "57300",
  "star": 1
}, {
  "name": "Buerehiesel",
  "city": "Strasbourg",
  "zipcode": "67000",
  "star": 1
}, {
  "name": "Astrance",
  "city": "Paris",
  "zipcode": "75016",
  "star": 3
}, {
  "name": "Serge Vieira",
  "city": "Chaudes-Aigues",
  "zipcode": "15110",
  "star": 2
}, {
  "name": "Le 7ème Continent",
  "city": "Rixheim",
  "zipcode": "68170",
  "star": 1
}, {
  "name": "La Table Saint-Crescent",
  "city": "Narbonne",
  "zipcode": "11100",
  "star": 1
}, {
  "name": "Le Chabichou",
  "city": "Courchevel 1850",
  "zipcode": "73120",
  "star": 2
}, {
  "name": "Les Climats",
  "city": "Paris 07",
  "zipcode": "75007",
  "star": 1
}, {
  "name": "Passage 53",
  "city": "Paris",
  "zipcode": "75002",
  "star": 2
}, {
  "name": "Le Kaïku",
  "city": "Saint-Jean-de-Luz",
  "zipcode": "64500",
  "star": 1
}, {
  "name": "Château de Mirambeau",
  "city": "Mirambeau",
  "zipcode": "17150",
  "star": 1
}, {
  "name": "Au 14 Février",
  "city": "Saint-Valentin",
  "zipcode": "36100",
  "star": 1
}, {
  "name": "Table des Frères Ibarboure",
  "city": "Bidart",
  "zipcode": "64210",
  "star": 1
}, {
  "name": "Py-r",
  "city": "Toulouse",
  "zipcode": "31000",
  "star": 1
}, {
  "name": "Les Trois Dômes",
  "city": "Lyon",
  "zipcode": "69002",
  "star": 1
}, {
  "name": "Guy Lassausaie",
  "city": "Chasselay",
  "zipcode": "69380",
  "star": 2
}, {
  "name": "Le George",
  "city": "Paris",
  "zipcode": "75008",
  "star": 1
}, {
  "name": "Restaurant de Lauzun",
  "city": "Gignac",
  "zipcode": "34150",
  "star": 1
}, {
  "name": "Le Puits St-Jacques",
  "city": "Pujaudran",
  "zipcode": "32600",
  "star": 2
}, {
  "name": "La Table d'Olivier",
  "city": "Brive-la-Gaillarde",
  "zipcode": "19100",
  "star": 1
}, {
  "name": "L'Atelier de Joël Robuchon - Étoile",
  "city": "Paris",
  "zipcode": "75008",
  "star": 1
}, {
  "name": "La Bastide de Capelongue",
  "city": "Bonnieux",
  "zipcode": "84480",
  "star": 2
}, {
  "name": "L'Aquarelle",
  "city": "Breuillet",
  "zipcode": "17920",
  "star": 1
}, {
  "name": "Maison Prévôt",
  "city": "Cavaillon",
  "zipcode": "84300",
  "star": 1
}, {
  "name": "Avel Vor",
  "city": "Port-Louis",
  "zipcode": "56290",
  "star": 1
}, {
  "name": "Ze Kitchen Galerie",
  "city": "Paris",
  "zipcode": "75006",
  "star": 1
}, {
  "name": "La Tour",
  "city": "Sancerre",
  "zipcode": "18300",
  "star": 1
}, {
  "name": "Terre-Mer",
  "city": "Auray",
  "zipcode": "56400",
  "star": 1
}, {
  "name": "Les Chênes Verts",
  "city": "Tourtour",
  "zipcode": "83690",
  "star": 1
}, {
  "name": "La Petite Maison de Cucuron",
  "city": "Cucuron",
  "zipcode": "84160",
  "star": 1
}, {
  "name": "SaQuaNa",
  "city": "Honfleur",
  "zipcode": "14600",
  "star": 2
}, {
  "name": "La Promenade",
  "city": "Verfeil",
  "zipcode": "31590",
  "star": 1
}, {
  "name": "En Pleine Nature",
  "city": "Fonsegrives",
  "zipcode": "31130",
  "star": 1
}, {
  "name": "Mariottat",
  "city": "Agen",
  "zipcode": "47000",
  "star": 1
}, {
  "name": "Roscanvec",
  "city": "Vannes",
  "zipcode": "56000",
  "star": 1
}, {
  "name": "Le Mas du Langoustier",
  "city": "Hyères",
  "zipcode": "83400",
  "star": 1
}, {
  "name": "Umami",
  "city": "Strasbourg",
  "zipcode": "67000",
  "star": 1
}, {
  "name": "L'Atelier de Joël Robuchon - St-Germain",
  "city": "Paris",
  "zipcode": "75007",
  "star": 2
}, {
  "name": "Michel Sarran",
  "city": "Toulouse",
  "zipcode": "31000",
  "star": 2
}, {
  "name": "Hostellerie de Levernois",
  "city": "Levernois",
  "zipcode": "21200",
  "star": 1
}, {
  "name": "La Table de Chaintré",
  "city": "Chaintré",
  "zipcode": "71570",
  "star": 1
}, {
  "name": "Le Puits du Trésor",
  "city": "Lastours",
  "zipcode": "11600",
  "star": 1
}, {
  "name": "Le Bistrot de Lagarde",
  "city": "Lagarde-d'Apt",
  "zipcode": "84400",
  "star": 1
}, {
  "name": "Le Gambetta",
  "city": "Saumur",
  "zipcode": "49400",
  "star": 1
}, {
  "name": "Michel Trama",
  "city": "Puymirol",
  "zipcode": "47270",
  "star": 2
}, {
  "name": "Le Chiquito",
  "city": "Méry-sur-Oise",
  "zipcode": "95540",
  "star": 1
}, {
  "name": "Au Déjeuner de Sousceyrac",
  "city": "Sousceyrac",
  "zipcode": "46190",
  "star": 1
}, {
  "name": "Le Cercle",
  "city": "Bourges",
  "zipcode": "18000",
  "star": 1
}, {
  "name": "Cayola",
  "city": "Talmont-Saint-Hilaire",
  "zipcode": "85180",
  "star": 1
}, {
  "name": "Pertica",
  "city": "Vendôme",
  "zipcode": "41100",
  "star": 1
}, {
  "name": "La Closerie",
  "city": "Ansouis",
  "zipcode": "84240",
  "star": 1
}, {
  "name": "Au Souper Fin",
  "city": "Frichemesnil",
  "zipcode": "76690",
  "star": 1
}, {
  "name": "Le Lièvre Gourmand",
  "city": "Orléans",
  "zipcode": "45000",
  "star": 1
}, {
  "name": "Septime",
  "city": "Paris",
  "zipcode": "75011",
  "star": 1
}, {
  "name": "La Ribaudière",
  "city": "Bourg-Charente",
  "zipcode": "16200",
  "star": 1
}, {
  "name": "Meulien",
  "city": "Tournus",
  "zipcode": "71700",
  "star": 1
}, {
  "name": "L'Essentiel",
  "city": "Périgueux",
  "zipcode": "24000",
  "star": 1
}, {
  "name": "Brikéténia",
  "city": "Guéthary",
  "zipcode": "64210",
  "star": 1
}, {
  "name": "Auberge du Vert Mont",
  "city": "Boeschepe",
  "zipcode": "59299",
  "star": 1
}, {
  "name": "La Coquerie",
  "city": "Sète",
  "zipcode": "34200",
  "star": 1
}, {
  "name": "Le Favre d'Anne",
  "city": "Angers",
  "zipcode": "49000",
  "star": 1
}, {
  "name": "Le Camélia",
  "city": "Bougival",
  "zipcode": "78380",
  "star": 1
}, {
  "name": "Le Village",
  "city": "Marly-le-Roi",
  "zipcode": "78160",
  "star": 1
}, {
  "name": "La Table d'Eugène",
  "city": "Paris",
  "zipcode": "75018",
  "star": 1
}, {
  "name": "Le Bon Accueil",
  "city": "Malbuisson",
  "zipcode": "25160",
  "star": 1
}, {
  "name": "La Rastègue",
  "city": "Bormes-les-Mimosas",
  "zipcode": "83230",
  "star": 1
}, {
  "name": "Aux Terrasses",
  "city": "Tournus",
  "zipcode": "71700",
  "star": 1
}, {
  "name": "Miraflores",
  "city": "Lyon",
  "zipcode": "69006",
  "star": 1
}, {
  "name": "Le Foch",
  "city": "Reims",
  "zipcode": "51100",
  "star": 1
}, {
  "name": "Auberge du Dun",
  "city": "Le Bourg-Dun",
  "zipcode": "76740",
  "star": 1
}, {
  "name": "Le Park 45",
  "city": "Cannes",
  "zipcode": "06400",
  "star": 1
}, {
  "name": "La Marande",
  "city": "Montbellet",
  "zipcode": "71260",
  "star": 1
}, {
  "name": "La Gloire",
  "city": "Montargis",
  "zipcode": "45200",
  "star": 1
}, {
  "name": "Auberge St-Jean",
  "city": "Saint-Jean-de-Blaignac",
  "zipcode": "33420",
  "star": 1
}, {
  "name": "Vieux Pont",
  "city": "Belcastel",
  "zipcode": "12390",
  "star": 1
}, {
  "name": "Le Belvédère",
  "city": "Bozouls",
  "zipcode": "12340",
  "star": 1
}, {
  "name": "L'Atlantide 1874 - Maison Guého",
  "city": "Nantes",
  "zipcode": "44100",
  "star": 1
}, {
  "name": "Tour d'Argent",
  "city": "Paris",
  "zipcode": "75005",
  "star": 1
}, {
  "name": "Le Moulin d'Alotz",
  "city": "Alotz",
  "zipcode": "64200",
  "star": 1
}, {
  "name": "Le Cerf",
  "city": "Marlenheim",
  "zipcode": "67520",
  "star": 1
}, {
  "name": "Le Pily",
  "city": "Cherbourg-en-Cotentin",
  "zipcode": "50100",
  "star": 1
}, {
  "name": "Château du Mont Joly",
  "city": "Sampans",
  "zipcode": "39100",
  "star": 1
}, {
  "name": "Étincelles - La Gentilhommière",
  "city": "Sainte-Sabine",
  "zipcode": "24440",
  "star": 1
}, {
  "name": "L'Aubergade",
  "city": "Dury",
  "zipcode": "80480",
  "star": 1
}, {
  "name": "La Table des Cordeliers",
  "city": "Condom",
  "zipcode": "32100",
  "star": 1
}, {
  "name": "Le Jules Verne",
  "city": "Paris",
  "zipcode": "75007",
  "star": 1
}, {
  "name": "Le Prieuré",
  "city": "Ambierle",
  "zipcode": "42820",
  "star": 1
}, {
  "name": "Mon Plaisir",
  "city": "Chamesol",
  "zipcode": "25190",
  "star": 1
}, {
  "name": "Côté Jardin",
  "city": "Gien",
  "zipcode": "45500",
  "star": 1
}, {
  "name": "Jérémy Galvan",
  "city": "Lyon 05",
  "zipcode": "69005",
  "star": 1
}, {
  "name": "La Ville Blanche",
  "city": "Rospez",
  "zipcode": "22300",
  "star": 1
}, {
  "name": "Lou Cigalon-Maison Martin",
  "city": "Valbonne",
  "zipcode": "06560",
  "star": 1
}, {
  "name": "La Roya",
  "city": "Saint-Florent",
  "zipcode": "20217",
  "star": 1
}, {
  "name": "La Robe",
  "city": "Montaigu",
  "zipcode": "85600",
  "star": 1
}, {
  "name": "Château Blanchard",
  "city": "Chazelles-sur-Lyon",
  "zipcode": "42140",
  "star": 1
}, {
  "name": "Le Pêché Gourmand",
  "city": "Briançon",
  "zipcode": "05100",
  "star": 1
}, {
  "name": "La Fourchette du Printemps",
  "city": "Paris",
  "zipcode": "75017",
  "star": 1
}, {
  "name": "À Contre Sens",
  "city": "Caen",
  "zipcode": "14000",
  "star": 1
}, {
  "name": "Auberge Le Prieuré",
  "city": "Moirax",
  "zipcode": "47310",
  "star": 1
}, {
  "name": "Table - Bruno Verjus",
  "city": "Paris",
  "zipcode": "75012",
  "star": 1
}, {
  "name": "Haut Bonheur de la Table",
  "city": "CasselCassel",
  "zipcode": "5967059670",
  "star": 1
}, {
  "name": "L'Éveil des Sens",
  "city": "Mayenne",
  "zipcode": "53100",
  "star": 1
}, {
  "name": "Le Moulin des Quatre Saisons",
  "city": "La Flèche",
  "zipcode": "72200",
  "star": 1
}, {
  "name": "Val d'Auge",
  "city": "Bondues",
  "zipcode": "59910",
  "star": 1
}, {
  "name": "Le Sérac",
  "city": "Saint-Gervais-les-Bains",
  "zipcode": "74170",
  "star": 1
}, {
  "name": "L'Alchémille",
  "city": "Kaysersberg",
  "zipcode": "68240",
  "star": 1
}, {
  "name": "L'Orée de la Forêt",
  "city": "Étouy",
  "zipcode": "60600",
  "star": 1
}, {
  "name": "Palm Beach",
  "city": "Ajaccio",
  "zipcode": "20000",
  "star": 1
}, {
  "name": "Yam'Tcha",
  "city": "Paris",
  "zipcode": "75001",
  "star": 1
}, {
  "name": "La Bonne Auberge",
  "city": "Stiring-Wendel",
  "zipcode": "57350",
  "star": 1
}, {
  "name": "Apicius",
  "city": "Paris",
  "zipcode": "75008",
  "star": 1
}, {
  "name": "Henri et Joseph",
  "city": "Lorient",
  "zipcode": "56100",
  "star": 1
}, {
  "name": "Les Pyrénées",
  "city": "Saint-Jean-Pied-de-Port",
  "zipcode": "64220",
  "star": 1
}, {
  "name": "Gaya Rive Gauche par Pierre Gagnaire",
  "city": "Paris",
  "zipcode": "75007",
  "star": 1
}, {
  "name": "Château de la Treyne",
  "city": "Lacave",
  "zipcode": "46200",
  "star": 1
}, {
  "name": "Intuition",
  "city": "Saint-Lô",
  "zipcode": "50000",
  "star": 1
}, {
  "name": "Gavroche",
  "city": "Strasbourg",
  "zipcode": "67000",
  "star": 1
}, {
  "name": "Les Tables de Gaspard",
  "city": "St-Crépin",
  "zipcode": "05600",
  "star": 1
}, {
  "name": "Le Montgomerie",
  "city": "Courchevel 1850",
  "zipcode": "73120",
  "star": 2
}, {
  "name": "Le Château de Sable",
  "city": "Porspoder",
  "zipcode": "29840",
  "star": 1
}, {
  "name": "Laurent",
  "city": "Paris",
  "zipcode": "75008",
  "star": 1
}, {
  "name": "Auberge St-Walfrid",
  "city": "Sarreguemines",
  "zipcode": "57200",
  "star": 1
}, {
  "name": "Clovis",
  "city": "Tourrettes-sur-Loup",
  "zipcode": "06140",
  "star": 1
}, {
  "name": "Allium",
  "city": "Quimper",
  "zipcode": "29000",
  "star": 1
}, {
  "name": "Le Pot d'Étain",
  "city": "Danjoutin",
  "zipcode": "90400",
  "star": 1
}, {
  "name": "L'Hysope",
  "city": "La Jarrie",
  "zipcode": "17220",
  "star": 1
}, {
  "name": "Château de Codignat",
  "city": "Bort-l'Étang",
  "zipcode": "63190",
  "star": 1
}, {
  "name": "L'Aromate",
  "city": "Nice",
  "zipcode": "06000",
  "star": 1
}, {
  "name": "Les Genêts",
  "city": "Brem-sur-Mer",
  "zipcode": "85470",
  "star": 1
}, {
  "name": "Le St-Martin",
  "city": "Montbéliard",
  "zipcode": "25200",
  "star": 1
}, {
  "name": "L'Océan",
  "city": "Saint-Jean-de-Luz",
  "zipcode": "64500",
  "star": 1
}, {
  "name": "Pages",
  "city": "Paris",
  "zipcode": "75016",
  "star": 1
}, {
  "name": "La Vieille Tour",
  "city": "Plérin",
  "zipcode": "22190",
  "star": 1
}, {
  "name": "La Marine",
  "city": "Barneville-Carteret",
  "zipcode": "50270",
  "star": 1
}, {
  "name": "Azimut",
  "city": "Courchevel-Saint-Bon",
  "zipcode": "73120",
  "star": 1
}, {
  "name": "Le Grand Restaurant - Jean-François Piège",
  "city": "Paris",
  "zipcode": "75008",
  "star": 2
}, {
  "name": "Rodolphe",
  "city": "Rouen",
  "zipcode": "76000",
  "star": 1
}, {
  "name": "L'Émulsion",
  "city": "Saint-Alban-de-Roche",
  "zipcode": "38080",
  "star": 1
}, {
  "name": "Le Clos St-Pierre",
  "city": "Le Rouret",
  "zipcode": "06650",
  "star": 1
}, {
  "name": "Le Pousse-Pied",
  "city": "La Tranche-sur-Mer",
  "zipcode": "85360",
  "star": 1
}, {
  "name": "Garopapilles",
  "city": "Bordeaux",
  "zipcode": "33000",
  "star": 1
}, {
  "name": "Le Pavillon",
  "city": "Le Touquet-Paris-Plage",
  "zipcode": "62520",
  "star": 1
}, {
  "name": "Racine",
  "city": "Reims",
  "zipcode": "51100",
  "star": 1
}, {
  "name": "Château de Vauchoux",
  "city": "Vauchoux",
  "zipcode": "70170",
  "star": 1
}, {
  "name": "Le Marcq",
  "city": "Marcq-en-Barœul",
  "zipcode": "59700",
  "star": 1
}, {
  "name": "U Santa Marina",
  "city": "Porto-Vecchio",
  "zipcode": "20137",
  "star": 1
}, {
  "name": "Pèir",
  "city": "Gordes",
  "zipcode": "84220",
  "star": 1
}, {
  "name": "Palégrié",
  "city": "Corrençon-en-Vercors",
  "zipcode": "38250",
  "star": 1
}, {
  "name": "La Table by La Villa",
  "city": "Calvi",
  "zipcode": "20260",
  "star": 1
}, {
  "name": "Le Chateaubriand",
  "city": "Paris",
  "zipcode": "75011",
  "star": 1
}, {
  "name": "Jérôme Feck",
  "city": "Châlons-en-Champagne",
  "zipcode": "51000",
  "star": 1
}, {
  "name": "Pierre Reboul",
  "city": "Aix-en-Provence",
  "zipcode": "13546",
  "star": 1
}, {
  "name": "Ken Kawasaki",
  "city": "Paris",
  "zipcode": "75018",
  "star": 1
}, {
  "name": "Le Skiff Club",
  "city": "La Teste-de-Buch",
  "zipcode": "33260",
  "star": 1
}, {
  "name": "Akrame",
  "city": "Paris",
  "zipcode": "75008",
  "star": 1
}, {
  "name": "Le Grand Cap",
  "city": "Leucate",
  "zipcode": "11370",
  "star": 1
}, {
  "name": "Restaurant H",
  "city": "Paris",
  "zipcode": "75004",
  "star": 1
}, {
  "name": "Sushi B",
  "city": "Paris",
  "zipcode": "75002",
  "star": 1
}, {
  "name": "Divellec",
  "city": "Paris",
  "zipcode": "75007",
  "star": 1
}, {
  "name": "La Merise",
  "city": "Laubach",
  "zipcode": "67580",
  "star": 1
}, {
  "name": "Jean Chauvel",
  "city": "Boulogne-Billancourt",
  "zipcode": "92100",
  "star": 1
}, {
  "name": "Montée",
  "city": "Paris",
  "zipcode": "75014",
  "star": 1
}, {
  "name": "L'Auberge de Bagatelle",
  "city": "Le Mans",
  "zipcode": "72000",
  "star": 1
}, {
  "name": "Ima",
  "city": "Rennes",
  "zipcode": "35000",
  "star": 1
}, {
  "name": "Comice",
  "city": "Paris",
  "zipcode": "75016",
  "star": 1
}, {
  "name": "La Table d'Hôtes - Le Quatrième Mur",
  "city": "Bordeaux",
  "zipcode": "33000",
  "star": 1
}, {
  "name": "La Table de la Ferme",
  "city": "Sartène",
  "zipcode": "20100",
  "star": 1
}]
